{
"type": "FeatureCollection",
"name": "Moremi_boundary",
"crs": { "type": "name", "properties": { "name": "urn:ogc:def:crs:OGC:1.3:CRS84" } },
"features": [
{ "type": "Feature", "properties": { "AREA": 4890446336.0, "CHA_NO": "NG/28", "DISTRICT": "Ngamiland", "LANDUSE": "Game Reserve", "WMA_STAT": "Gazetted", "CHA_TYPE": "Moremi Game Reserve", "STATUS": "Gazetted", "LAND_TENUR": "Tribal", "MGMT_NAME": null, "CODE": 1, "ConsAreaJB": "no" }, "geometry": { "type": "MultiPolygon", "coordinates": [ [ [ [ 22.575610920443662, -18.983409902703894 ], [ 22.576690529846577, -18.984950335404548 ], [ 22.579721231211316, -18.985800693519504 ], [ 22.581861208410903, -18.989450827486003 ], [ 22.582299860682095, -18.99323027961891 ], [ 22.582530711398629, -18.995250030294649 ], [ 22.584270270456173, -18.997529908528378 ], [ 22.585660839943426, -19.000279398242991 ], [ 22.588060179333748, -19.003529215139906 ], [ 22.590471098901251, -19.00597913143617 ], [ 22.593330234218207, -19.006909334863952 ], [ 22.594490099804922, -19.00868982587372 ], [ 22.597511237908801, -19.009858476965185 ], [ 22.597801187416735, -19.012999519630522 ], [ 22.596861063244443, -19.019107363615415 ], [ 22.596881898456495, -19.022888139997452 ], [ 22.596931557809881, -19.025216093210751 ], [ 22.598970412182396, -19.024766048481784 ], [ 22.600990366099236, -19.025118062209039 ], [ 22.603410839294156, -19.027407459671974 ], [ 22.60380177659508, -19.029496197151904 ], [ 22.602420954217688, -19.03084614692882 ], [ 22.600950434434399, -19.033008928090897 ], [ 22.600311257771036, -19.036127105339911 ], [ 22.602051004374729, -19.03856729064859 ], [ 22.604212015712349, -19.040685237310736 ], [ 22.603491076779147, -19.043495476264429 ], [ 22.601341221590456, -19.04603501470919 ], [ 22.599250863015065, -19.049795254825586 ], [ 22.594591238126604, -19.050125916455986 ], [ 22.591720575524803, -19.050334531115922 ], [ 22.589549881803507, -19.053515530470985 ], [ 22.59027083493913, -19.056503936795561 ], [ 22.589879892667856, -19.059316622238178 ], [ 22.589151346325291, -19.062845330121533 ], [ 22.59511189376877, -19.065584471621108 ], [ 22.601230736469159, -19.06888505652574 ], [ 22.6062816006872, -19.07089382660795 ], [ 22.610142013577299, -19.072312729998448 ], [ 22.611711729207197, -19.075072451752039 ], [ 22.613371325021962, -19.076784298638859 ], [ 22.615782163944353, -19.079552575224042 ], [ 22.617741048544406, -19.078934535418373 ], [ 22.619501586380974, -19.079842605039705 ], [ 22.625252149343641, -19.085232249933537 ], [ 22.627401908268155, -19.082692450311185 ], [ 22.630341205877077, -19.084501814966472 ], [ 22.632641374830886, -19.088313092773749 ], [ 22.637060695216388, -19.092241727414038 ], [ 22.641771890777395, -19.094073063981469 ], [ 22.644501376126552, -19.092902253699815 ], [ 22.646490812957925, -19.090033371193719 ], [ 22.647951786633442, -19.088532288196415 ], [ 22.651951508987043, -19.086972948650946 ], [ 22.658501517804474, -19.084652465939435 ], [ 22.661122270511374, -19.084852310694625 ], [ 22.66333106200543, -19.084072889013136 ], [ 22.666882624289247, -19.083723483820034 ], [ 22.669001726183968, -19.083752359442546 ], [ 22.671681664152167, -19.085473343196195 ], [ 22.674981218497184, -19.085282414408379 ], [ 22.677512489935321, -19.085793240338862 ], [ 22.678672094902069, -19.087261408028098 ], [ 22.681702828892629, -19.088754266387205 ], [ 22.682523127987491, -19.090452746878686 ], [ 22.684521932374427, -19.09184326768915 ], [ 22.687041717192297, -19.092923364541303 ], [ 22.689242694522946, -19.093363887429938 ], [ 22.691041391903024, -19.091532650887789 ], [ 22.69226195827649, -19.089534583131357 ], [ 22.693393053695477, -19.087461295284221 ], [ 22.696362917944512, -19.086614552206395 ], [ 22.698962710918579, -19.088104083952796 ], [ 22.701873293796595, -19.091353931551289 ], [ 22.704372103244019, -19.093961305164395 ], [ 22.707562996756458, -19.095463919997339 ], [ 22.711112702621865, -19.095341902806464 ], [ 22.713392024103818, -19.095771390288295 ], [ 22.718622097368815, -19.091091528972179 ], [ 22.721723565386309, -19.087843058309566 ], [ 22.726913363053299, -19.085492573848317 ], [ 22.732322815966082, -19.085572802345627 ], [ 22.7374231003683, -19.083872236314303 ], [ 22.741773825900967, -19.081755110349075 ], [ 22.746633856568018, -19.084554314351703 ], [ 22.751192375583909, -19.085344580568702 ], [ 22.754602671809891, -19.083693086314678 ], [ 22.758863711075886, -19.08142352771468 ], [ 22.762293230284559, -19.078483874712326 ], [ 22.770172543007924, -19.077304967695522 ], [ 22.776073981089841, -19.07890357298287 ], [ 22.781553822304499, -19.079703723147595 ], [ 22.787813840542729, -19.079622961433742 ], [ 22.790863716667417, -19.079263327856001 ], [ 22.794493710198125, -19.080032873422908 ], [ 22.797694196602119, -19.081283169019823 ], [ 22.803124472279055, -19.07958289569218 ], [ 22.80721393080508, -19.078022940496556 ], [ 22.809094645432971, -19.07628366077385 ], [ 22.809064099269609, -19.072574933312303 ], [ 22.809523740312134, -19.070243401595697 ], [ 22.811553000980552, -19.070114115455233 ], [ 22.816174824229709, -19.066634176752107 ], [ 22.821114799028503, -19.063804745175222 ], [ 22.82391488136, -19.063515268215511 ], [ 22.824584204286939, -19.063646089947405 ], [ 22.826953206722742, -19.064115417868024 ], [ 22.829224930564965, -19.065112922805557 ], [ 22.83185320696737, -19.064413186455557 ], [ 22.834153634630429, -19.062924880299761 ], [ 22.833094933366048, -19.060653726959899 ], [ 22.833714983327869, -19.058483584775392 ], [ 22.836013182540864, -19.057555701718687 ], [ 22.837773803200285, -19.058224443347804 ], [ 22.842824603054851, -19.059976008674273 ], [ 22.84577517099482, -19.055185321032067 ], [ 22.849405082203933, -19.055635121114499 ], [ 22.851914917619041, -19.056875647744878 ], [ 22.854533829548124, -19.057465951912054 ], [ 22.85743513323311, -19.055736994490537 ], [ 22.859634341552805, -19.05527374698508 ], [ 22.862344588978864, -19.055236237274023 ], [ 22.865203759656115, -19.056234665271951 ], [ 22.868743897564762, -19.056925350966175 ], [ 22.87084385176707, -19.058484029211897 ], [ 22.87243472803959, -19.059544641494206 ], [ 22.877244918189458, -19.060254226704267 ], [ 22.8818055014602, -19.060623179895476 ], [ 22.884184071054857, -19.060174286421574 ], [ 22.886634889913005, -19.060204913306812 ], [ 22.889324314057646, -19.061613267476552 ], [ 22.891513989858261, -19.062272790915699 ], [ 22.893304988649678, -19.061094795365523 ], [ 22.89366551600687, -19.05932513605303 ], [ 22.895635821910556, -19.057666815161571 ], [ 22.897665385967404, -19.057285714575013 ], [ 22.901235899854516, -19.05668551550399 ], [ 22.904365994873899, -19.056645368038314 ], [ 22.906204628693086, -19.057876668170181 ], [ 22.908335229864694, -19.056535554154035 ], [ 22.909214472983138, -19.054375684714049 ], [ 22.911755189071425, -19.053913826906324 ], [ 22.913546180123632, -19.053386501857791 ], [ 22.914496041690381, -19.051455278194048 ], [ 22.91848637523573, -19.050454926666294 ], [ 22.920075012866789, -19.051854125249747 ], [ 22.920725388798058, -19.053543885751107 ], [ 22.923254613992217, -19.054304458898116 ], [ 22.924154909116808, -19.056404726898204 ], [ 22.926935837203494, -19.057164458370636 ], [ 22.92938504873257, -19.057675885266413 ], [ 22.930716231377733, -19.058894964896865 ], [ 22.933245381765289, -19.059734504553532 ], [ 22.936165617572627, -19.062424948806743 ], [ 22.937485584743541, -19.065185239214806 ], [ 22.936606386086879, -19.067663914610872 ], [ 22.933335201232286, -19.071563862774799 ], [ 22.932955457863073, -19.07486352235534 ], [ 22.934445202321747, -19.077053035674442 ], [ 22.936976272268769, -19.077404387544039 ], [ 22.940226570725617, -19.075113379601927 ], [ 22.943366108581301, -19.074344917428188 ], [ 22.944356123902391, -19.069934539776131 ], [ 22.942965488773734, -19.066534307082648 ], [ 22.945536491603907, -19.063744355004268 ], [ 22.948386369589382, -19.065715530545781 ], [ 22.952096187543813, -19.06640560754731 ], [ 22.958846412696932, -19.067614521467856 ], [ 22.963406800463396, -19.068474154357638 ], [ 22.966186010381534, -19.068905597494417 ], [ 22.96824570069451, -19.067163356928894 ], [ 22.970225655837325, -19.064613818487743 ], [ 22.974635633185859, -19.063454132417206 ], [ 22.976895764342558, -19.065093899945346 ], [ 22.978406302862009, -19.066155443476113 ], [ 22.982886863758576, -19.065113472144485 ], [ 22.985557039159023, -19.065984727772264 ], [ 23.010496083339259, -19.074043908070326 ], [ 23.086207351280962, -19.114320478751807 ], [ 23.08645730399812, -19.114482184812982 ], [ 23.086626900382051, -19.114772315640515 ], [ 23.086567864001065, -19.115239857149056 ], [ 23.086407679364836, -19.115670736086543 ], [ 23.086386674787875, -19.11586951779492 ], [ 23.086506948646729, -19.116211385244728 ], [ 23.087008445128099, -19.116570964865904 ], [ 23.087416636403933, -19.116819337111021 ], [ 23.087617122624213, -19.116951414693276 ], [ 23.08770849948505, -19.117089732621405 ], [ 23.087607548686311, -19.117179634758045 ], [ 23.087536962845423, -19.117260647236424 ], [ 23.087637861403742, -19.117450993718556 ], [ 23.087737201087084, -19.117492167126851 ], [ 23.087807758877716, -19.117741124951824 ], [ 23.087826853967666, -19.117890384355444 ], [ 23.087918256515803, -19.117969939672886 ], [ 23.088107326757328, -19.118070319869009 ], [ 23.088107164096858, -19.118370907927094 ], [ 23.088236745128793, -19.118480034015224 ], [ 23.0884182000427, -19.118560035504672 ], [ 23.088507645396188, -19.118779705442574 ], [ 23.088288481056207, -19.118909703588702 ], [ 23.088087978908643, -19.119051094133614 ], [ 23.088128075023487, -19.119381263829244 ], [ 23.088196851597505, -19.119630211755837 ], [ 23.088147105614294, -19.119921514140387 ], [ 23.087958539429906, -19.120162407515135 ], [ 23.088078633161683, -19.120429691292951 ], [ 23.088118631699153, -19.120669457024675 ], [ 23.088396991347615, -19.120910403420755 ], [ 23.088797739629197, -19.121000531391545 ], [ 23.089177276095249, -19.121110893518349 ], [ 23.089257287198091, -19.121099989012691 ], [ 23.089377446226433, -19.121030522128351 ], [ 23.089787458700254, -19.121111652538886 ], [ 23.090108147449815, -19.121058996739979 ], [ 23.090376849970642, -19.121110047077483 ], [ 23.090336989170812, -19.121442081054738 ], [ 23.09043804209027, -19.121659547413749 ], [ 23.090537312446386, -19.12193124617 ], [ 23.090367297260109, -19.122149632624883 ], [ 23.090468477278559, -19.122669949533886 ], [ 23.09072779709944, -19.122969560400009 ], [ 23.090956839204683, -19.123099515793811 ], [ 23.09102738308485, -19.123569958942966 ], [ 23.091267671791059, -19.123980219369965 ], [ 23.091538562757197, -19.124230164901565 ], [ 23.091687458929421, -19.124558610540085 ], [ 23.0915175161051, -19.124709196154125 ], [ 23.091168511844785, -19.124829515579876 ], [ 23.09115712552423, -19.125389957171617 ], [ 23.091208598029439, -19.125760863112284 ], [ 23.091157083333265, -19.126049897056905 ], [ 23.090817535445616, -19.126070820828321 ], [ 23.090666910018534, -19.126221500538762 ], [ 23.090918681643934, -19.126489433400742 ], [ 23.091338147323889, -19.126801134961809 ], [ 23.091248601940681, -19.127250446807583 ], [ 23.091036802427361, -19.127879959550427 ], [ 23.091147580938955, -19.128059053240921 ], [ 23.091387895454552, -19.128900985514861 ], [ 23.091588079655676, -19.129200303750423 ], [ 23.091887469788315, -19.129240203807324 ], [ 23.092207941917472, -19.129338968681012 ], [ 23.092587677084882, -19.129688892825634 ], [ 23.092988292661929, -19.129971117844356 ], [ 23.093237931641013, -19.130250336614861 ], [ 23.093308639531369, -19.130528674649064 ], [ 23.093117886140739, -19.130679158447588 ], [ 23.093096848479021, -19.130830479511616 ], [ 23.093697822947526, -19.131109170523214 ], [ 23.093756876914313, -19.13129026662331 ], [ 23.093737837974629, -19.13162014316276 ], [ 23.093916959250581, -19.131749850017655 ], [ 23.094117460458516, -19.131610713323809 ], [ 23.094378641660789, -19.131790545522566 ], [ 23.094468148927906, -19.132328882421781 ], [ 23.094607477035463, -19.132779322628362 ], [ 23.094788687985307, -19.133180247340224 ], [ 23.094977610773793, -19.133420743918357 ], [ 23.095277038425781, -19.133510360035388 ], [ 23.095448749072514, -19.133800494021397 ], [ 23.09551726715091, -19.134318386827335 ], [ 23.095778683025969, -19.134620261986878 ], [ 23.096238325661346, -19.134819148249374 ], [ 23.096676876169354, -19.134687958029474 ], [ 23.096837253223509, -19.134548621964139 ], [ 23.097068051828014, -19.134468392291112 ], [ 23.097358039004455, -19.134709383318427 ], [ 23.097607871715788, -19.135119682435999 ], [ 23.098117211697623, -19.135418251227048 ], [ 23.098427979757371, -19.135828847925318 ], [ 23.098748537018821, -19.136079026868398 ], [ 23.099158466441285, -19.13612849734416 ], [ 23.099627595614265, -19.135949989477812 ], [ 23.099967112324094, -19.135718864083248 ], [ 23.100427025585837, -19.13575953551285 ], [ 23.100787449690088, -19.135948884700628 ], [ 23.101037395042411, -19.136230355471049 ], [ 23.100947627126558, -19.136559887309438 ], [ 23.100937959094725, -19.136808448135 ], [ 23.101157426085031, -19.136899923445711 ], [ 23.101348208388437, -19.136799152725938 ], [ 23.101508321485024, -19.136818016230617 ], [ 23.10153698623343, -19.137069023799953 ], [ 23.101357693402171, -19.137298675409685 ], [ 23.101397685967711, -19.137488717034653 ], [ 23.101657040512592, -19.137679830183803 ], [ 23.101777296020604, -19.137978747828836 ], [ 23.101687795834749, -19.138258558830394 ], [ 23.101388282688156, -19.13834749829012 ], [ 23.101327069972861, -19.138618408257489 ], [ 23.101428232491184, -19.138820048538239 ], [ 23.101447347808389, -19.139077790761068 ], [ 23.101058370038565, -19.139439760375453 ], [ 23.100796945569108, -19.139849815031898 ], [ 23.100728389712682, -19.140159109488053 ], [ 23.100567972310024, -19.140470215377647 ], [ 23.100487960908062, -19.140808834564936 ], [ 23.100638726908659, -19.14101749847292 ], [ 23.100787469962246, -19.141160610309726 ], [ 23.100758695554848, -19.14147913944646 ], [ 23.100876952201233, -19.141707985313236 ], [ 23.101157445644517, -19.141948924526311 ], [ 23.10133850061678, -19.142218757955629 ], [ 23.101247132551762, -19.142568622916343 ], [ 23.101058283366701, -19.142969991619168 ], [ 23.101138268244696, -19.143350074608193 ], [ 23.101237423538709, -19.143868115787932 ], [ 23.101138402163521, -19.144258624366564 ], [ 23.100787393040157, -19.144358610685167 ], [ 23.100547128998663, -19.144208270489191 ], [ 23.100308666701498, -19.144329147384227 ], [ 23.1000588592326, -19.144459008464988 ], [ 23.099978754918354, -19.144759206013109 ], [ 23.100167545325856, -19.145137561772145 ], [ 23.100237961880552, -19.145418154950395 ], [ 23.100188420108541, -19.145838285980275 ], [ 23.100337257522295, -19.146019819297834 ], [ 23.100627168325463, -19.146059659824946 ], [ 23.101088695025087, -19.146247243398403 ], [ 23.101458937978158, -19.146438899399701 ], [ 23.101767745806416, -19.146557932314547 ], [ 23.10199864396467, -19.146626862618884 ], [ 23.102008155421981, -19.146956879566069 ], [ 23.102038591420829, -19.147210156140886 ], [ 23.102048245295677, -19.147458811766448 ], [ 23.102187470957745, -19.147769120938701 ], [ 23.10236875768895, -19.1478875305367 ], [ 23.102698656270061, -19.147789698134545 ], [ 23.102927365909697, -19.147548987494083 ], [ 23.103257587253527, -19.147446635010837 ], [ 23.103677102156635, -19.147267876011 ], [ 23.104018355466163, -19.147158796611969 ], [ 23.104308358117375, -19.147347795558151 ], [ 23.104308391482654, -19.147727487617562 ], [ 23.104478319435785, -19.147967883793765 ], [ 23.104667006950351, -19.148147348693037 ], [ 23.105048480338816, -19.148187627767811 ], [ 23.105407013248964, -19.148347578787501 ], [ 23.105458664519904, -19.14863711871277 ], [ 23.105878088769199, -19.148806405268985 ], [ 23.10635879788083, -19.148966949011729 ], [ 23.106677390877227, -19.14925778670715 ], [ 23.106938801297805, -19.149568687276002 ], [ 23.107198133328431, -19.149658090311316 ], [ 23.107598745434682, -19.149678116873897 ], [ 23.107837112875917, -19.149796797831602 ], [ 23.107858057963334, -19.150047767039339 ], [ 23.107777966271787, -19.150237224833155 ], [ 23.1078274676719, -19.150429571087617 ], [ 23.108048655019719, -19.150647611644473 ], [ 23.10809840675585, -19.150848999357098 ], [ 23.109227584430936, -19.150379861539985 ], [ 23.172598067291023, -19.12193207757398 ], [ 23.242749427679293, -19.115060470225878 ], [ 23.281579791887324, -19.108340728382561 ], [ 23.504693007253866, -19.128690415298969 ], [ 23.533223426992141, -19.133188301281098 ], [ 23.712955324666972, -19.163505174098731 ], [ 23.71354675329351, -19.163987533115801 ], [ 23.713926178598626, -19.164306821278124 ], [ 23.713975776663546, -19.164338542649741 ], [ 23.714626395901455, -19.164637909492793 ], [ 23.715265384191998, -19.164785818668239 ], [ 23.715385270632105, -19.164227718662101 ], [ 23.715326357150552, -19.163386809507273 ], [ 23.715625842190203, -19.162817687394284 ], [ 23.716375377176398, -19.162647065378692 ], [ 23.716816071965418, -19.162607061322234 ], [ 23.717275642891359, -19.162307154222628 ], [ 23.717706617537495, -19.162386925682274 ], [ 23.718256044258485, -19.162747151536546 ], [ 23.718955959962042, -19.162906442295661 ], [ 23.719346898900557, -19.162927382353931 ], [ 23.719856183011967, -19.162765421024801 ], [ 23.720356142515516, -19.162666730734603 ], [ 23.72066694593282, -19.162956517535875 ], [ 23.720396180537854, -19.163607061783473 ], [ 23.720127122353936, -19.164126513054381 ], [ 23.720796711718471, -19.1644665722254 ], [ 23.721685587885364, -19.164535728683937 ], [ 23.722576152512691, -19.164306529267428 ], [ 23.723627277523338, -19.163537363186659 ], [ 23.724225953861403, -19.163077169313851 ], [ 23.725105359150774, -19.162757530093025 ], [ 23.725696578551513, -19.162127799303001 ], [ 23.726057124650197, -19.161468339664918 ], [ 23.72642725086801, -19.1611275915084 ], [ 23.72731606477987, -19.161406925971164 ], [ 23.728086500807329, -19.161896285575633 ], [ 23.728777196057258, -19.162607029558416 ], [ 23.729486634638874, -19.16349636087411 ], [ 23.730165707235784, -19.1640488641941 ], [ 23.730926800743468, -19.164445527830274 ], [ 23.731846084994082, -19.164467214585954 ], [ 23.732626129058634, -19.164547460661847 ], [ 23.733366357536127, -19.164797166064783 ], [ 23.733976563608781, -19.165105447581958 ], [ 23.734417316402943, -19.165587522246248 ], [ 23.734726241216933, -19.165956391965597 ], [ 23.735426193985433, -19.165738155744496 ], [ 23.735996539244582, -19.165316307062543 ], [ 23.736406566435765, -19.165117992407524 ], [ 23.737057093309669, -19.165315568223235 ], [ 23.737627285651758, -19.165926655698495 ], [ 23.738645900182803, -19.166316873524504 ], [ 23.739326805053249, -19.166487361287558 ], [ 23.739925772499426, -19.16714820847691 ], [ 23.740375772197403, -19.167625761549203 ], [ 23.740976766542808, -19.167945307708504 ], [ 23.742376788119174, -19.168008303974155 ], [ 23.743076750782329, -19.168167503940882 ], [ 23.743896733368668, -19.168008169807752 ], [ 23.744775992640285, -19.167776586684575 ], [ 23.745537205747887, -19.167935861341522 ], [ 23.746576598294102, -19.167785861011076 ], [ 23.747507613277865, -19.167147488217015 ], [ 23.748655843346764, -19.167178446077315 ], [ 23.749737355959816, -19.167878346497666 ], [ 23.750505806756895, -19.168566513604052 ], [ 23.751226797979776, -19.168786737254994 ], [ 23.75209673980725, -19.168618393924508 ], [ 23.752016547337007, -19.167766164350482 ], [ 23.751226878006051, -19.167148043470913 ], [ 23.751026652715648, -19.166438047693589 ], [ 23.751696133040813, -19.165907790954922 ], [ 23.752565945812975, -19.166015197174872 ], [ 23.753447185602976, -19.166036725328524 ], [ 23.754137483584714, -19.165296282561105 ], [ 23.754797417999697, -19.164576139044858 ], [ 23.755507109865125, -19.164588385730521 ], [ 23.756237451220173, -19.165317163957919 ], [ 23.757385751321806, -19.165497245012279 ], [ 23.758495745531398, -19.165236517346134 ], [ 23.759047191932964, -19.165707377454513 ], [ 23.759606052543965, -19.165988383445267 ], [ 23.760265826063467, -19.165776779954786 ], [ 23.760456748796852, -19.164307853475922 ], [ 23.760946822398274, -19.162597467308011 ], [ 23.76175758644872, -19.161787083871197 ], [ 23.762846750497417, -19.161517260747324 ], [ 23.763897596141035, -19.161428203865054 ], [ 23.765116387442554, -19.16073586291763 ], [ 23.766226462877931, -19.160386936961842 ], [ 23.766766267574059, -19.159625911491027 ], [ 23.76675659023423, -19.158685625471698 ], [ 23.766606083320891, -19.157887558129431 ], [ 23.766957143851116, -19.157085607321598 ], [ 23.767397520489656, -19.156618288465189 ], [ 23.768296078928781, -19.15612668481992 ], [ 23.768917751534794, -19.155698015474375 ], [ 23.769976377973226, -19.155758111124396 ], [ 23.770706788435543, -19.155596284064561 ], [ 23.771277320894782, -19.154948296569486 ], [ 23.771727427791973, -19.154526185832673 ], [ 23.772616297555523, -19.15457927397237 ], [ 23.773266525297181, -19.154128022734209 ], [ 23.7735260398462, -19.153497725555606 ], [ 23.77406782474571, -19.153206817705691 ], [ 23.77473719861074, -19.153537639347039 ], [ 23.775547833783595, -19.153839248045976 ], [ 23.775467631325895, -19.154447164037261 ], [ 23.77538768223263, -19.154867477329699 ], [ 23.775957872268471, -19.155119063941143 ], [ 23.776816206779429, -19.154668052876396 ], [ 23.777317954113013, -19.15496701865176 ], [ 23.778227668842909, -19.154997502391552 ], [ 23.778847714867922, -19.154428660627229 ], [ 23.779787786938897, -19.153536980668086 ], [ 23.780516637396587, -19.152516207971502 ], [ 23.781166911725219, -19.152008421456831 ], [ 23.782067171800186, -19.152208395703251 ], [ 23.782677688291162, -19.152769666665055 ], [ 23.782646966426071, -19.153526822901789 ], [ 23.782597599596563, -19.154218408724578 ], [ 23.783217383150301, -19.154748045482393 ], [ 23.784367629752467, -19.154998029233109 ], [ 23.785986954006614, -19.155537868433385 ], [ 23.786066929928985, -19.155537961311396 ], [ 23.786967163744379, -19.155778596790725 ], [ 23.788247035520069, -19.15580719916472 ], [ 23.789196938816549, -19.155568702007759 ], [ 23.790476829771343, -19.155346398795995 ], [ 23.791487845986733, -19.155207411655901 ], [ 23.792546454160043, -19.155287719802342 ], [ 23.793526714981557, -19.154538412056255 ], [ 23.794146647621922, -19.153537804961577 ], [ 23.794676838983886, -19.152977849852846 ], [ 23.795817623383943, -19.15270788759295 ], [ 23.79691806768728, -19.152358764316741 ], [ 23.797908042740321, -19.151659169041793 ], [ 23.798296952147606, -19.150646992265244 ], [ 23.798176954126031, -19.149577748996453 ], [ 23.797797331941172, -19.149068769096754 ], [ 23.797406467557018, -19.148516830396385 ], [ 23.797776262267231, -19.147816551473785 ], [ 23.798667151278988, -19.147408419158364 ], [ 23.799887813747592, -19.147179203214424 ], [ 23.800927424844311, -19.146947523748995 ], [ 23.801686557544247, -19.146078136968104 ], [ 23.802407310708059, -19.145226787409271 ], [ 23.803227748809174, -19.144038759821125 ], [ 23.804116517146177, -19.142627034379974 ], [ 23.805216979668305, -19.141938817979824 ], [ 23.805777833704063, -19.141277149016862 ], [ 23.806098363058013, -19.140208374293657 ], [ 23.806206869455959, -19.139189101558539 ], [ 23.806058110275828, -19.138528942193865 ], [ 23.805768273567871, -19.137757880468374 ], [ 23.805676581066471, -19.137109082324297 ], [ 23.806268047918589, -19.136438402965432 ], [ 23.806567584893404, -19.135769674829799 ], [ 23.806767835440038, -19.135098580535971 ], [ 23.806508174301793, -19.134200975979994 ], [ 23.80624689254887, -19.133420903204541 ], [ 23.806086658346565, -19.132408127541122 ], [ 23.806176343462869, -19.131210271456645 ], [ 23.806237463939908, -19.130290399984567 ], [ 23.805846317424173, -19.12973847913921 ], [ 23.805367763088615, -19.129200025313651 ], [ 23.804698209668171, -19.128799245837296 ], [ 23.804368372885822, -19.12819087858901 ], [ 23.804307309712332, -19.127539851901954 ], [ 23.804507393823695, -19.127008897824194 ], [ 23.80544788457378, -19.126779345987174 ], [ 23.806147829021707, -19.126859194357316 ], [ 23.806887870706365, -19.126710794228636 ], [ 23.807486713431906, -19.126051418695685 ], [ 23.8077575815981, -19.125219916948158 ], [ 23.808017183398196, -19.124361278963573 ], [ 23.808436555659597, -19.123889317005897 ], [ 23.809176683891302, -19.123910427965889 ], [ 23.809968295847021, -19.124401730088618 ], [ 23.810446899245612, -19.125159419004863 ], [ 23.811217518243375, -19.125560281788886 ], [ 23.812207553580095, -19.126189654414528 ], [ 23.813107827863448, -19.127081123529496 ], [ 23.813817454630787, -19.127278487999696 ], [ 23.8146164649885, -19.126759429261799 ], [ 23.81510682694115, -19.125790259721981 ], [ 23.815207752355267, -19.123509732683676 ], [ 23.815026515645929, -19.122899273688144 ], [ 23.814976998769886, -19.121719353812654 ], [ 23.815476800564905, -19.120530944860253 ], [ 23.8160567532173, -19.119430765630455 ], [ 23.816367500936092, -19.117968669886707 ], [ 23.816678345916326, -19.116951849994621 ], [ 23.8173574247052, -19.116240534490295 ], [ 23.818538003042555, -19.115739917549668 ], [ 23.81956800490018, -19.115119350685905 ], [ 23.820348342335564, -19.114480452335485 ], [ 23.821048190326124, -19.113780444816598 ], [ 23.821736758807244, -19.113060080161258 ], [ 23.822436889430467, -19.112640343165165 ], [ 23.823176780923966, -19.112561945205858 ], [ 23.823827216351201, -19.112752433076082 ], [ 23.824267738027871, -19.11329080262335 ], [ 23.824656841206114, -19.114111659120493 ], [ 23.82480760854585, -19.11489160303411 ], [ 23.824866765342833, -19.115449950138508 ], [ 23.824807766409645, -19.115870307812699 ], [ 23.824866783508188, -19.116279476272965 ], [ 23.8253170051218, -19.116650591520749 ], [ 23.82565841568038, -19.116761669755963 ], [ 23.82615795409296, -19.116590360646928 ], [ 23.826367985483504, -19.116131719843874 ], [ 23.826676809740192, -19.115851734484604 ], [ 23.827308244361937, -19.115750615562369 ], [ 23.827777488841189, -19.115552149855151 ], [ 23.827937785135465, -19.115181612423065 ], [ 23.828067472613455, -19.114230151381978 ], [ 23.828378218962563, -19.113520710466904 ], [ 23.828877991613226, -19.113109802639592 ], [ 23.829387160646078, -19.112809656117353 ], [ 23.829797223056623, -19.112342155499153 ], [ 23.830348462059792, -19.111879305075497 ], [ 23.831286957757612, -19.111740029979529 ], [ 23.831967989823955, -19.111661541836646 ], [ 23.832368533241571, -19.111191766995521 ], [ 23.832566941713782, -19.110149953204797 ], [ 23.832788114493834, -19.109521792979713 ], [ 23.833386960537815, -19.108991167606963 ], [ 23.834268271920884, -19.108352300725485 ], [ 23.835008151352532, -19.107661315829148 ], [ 23.835557506319716, -19.106970157361829 ], [ 23.836267099566236, -19.106841953304265 ], [ 23.836978762720467, -19.106720528756743 ], [ 23.837607983784181, -19.106411424327636 ], [ 23.838117351535026, -19.105869403213354 ], [ 23.83861691404292, -19.105320590056227 ], [ 23.839007923617856, -19.104839490244878 ], [ 23.83904820740733, -19.104059723961502 ], [ 23.83861693832705, -19.103150708769789 ], [ 23.838598078161041, -19.102370890359843 ], [ 23.83910718074296, -19.10147173936241 ], [ 23.839097674467528, -19.100852410230548 ], [ 23.838718173876082, -19.100201113043141 ], [ 23.837777780697984, -19.099311991651248 ], [ 23.837216909407882, -19.098441283664648 ], [ 23.837358207127423, -19.097401672737508 ], [ 23.837987687293083, -19.096482287141189 ], [ 23.838987183600629, -19.095861582217335 ], [ 23.84002859497479, -19.095222826566218 ], [ 23.841037492092614, -19.094701571063233 ], [ 23.84220878177991, -19.094670933849741 ], [ 23.843278739002763, -19.094943082820933 ], [ 23.844297332121858, -19.095481896628012 ], [ 23.845247137149517, -19.096172087408672 ], [ 23.845937659898144, -19.097002195176863 ], [ 23.846267474968752, -19.097732545554219 ], [ 23.846677492578284, -19.098512689608594 ], [ 23.847078224551513, -19.099053233335191 ], [ 23.847837250167871, -19.099422289754248 ], [ 23.848787288602395, -19.099569991317711 ], [ 23.850106978436376, -19.099141614181303 ], [ 23.851217298003807, -19.099192240380333 ], [ 23.852577114691865, -19.099421624215189 ], [ 23.853637572600171, -19.100073434586751 ], [ 23.85469816277222, -19.10092188571867 ], [ 23.855669113909833, -19.101991768139982 ], [ 23.856607369534441, -19.103421008040492 ], [ 23.85701735417214, -19.10431188333645 ], [ 23.85760876621552, -19.10541084437088 ], [ 23.858127636876723, -19.106541392222002 ], [ 23.858468870674738, -19.107561047377214 ], [ 23.858898093007106, -19.108571728225698 ], [ 23.859237754012721, -19.109351789439767 ], [ 23.859357972361195, -19.1102424374664 ], [ 23.859598284690293, -19.111469959794348 ], [ 23.859748868692645, -19.112658989491599 ], [ 23.859848115160347, -19.113750786331892 ], [ 23.859897584811691, -19.115009806806182 ], [ 23.859869056157315, -19.116060821307215 ], [ 23.8600273211432, -19.116960537365678 ], [ 23.860727473568716, -19.1178403222745 ], [ 23.861888904587435, -19.118419832259821 ], [ 23.862907444059214, -19.119270463516738 ], [ 23.863758293557623, -19.12018877360784 ], [ 23.864957973877029, -19.12091973271243 ], [ 23.865978192975838, -19.121200754009699 ], [ 23.867277145026552, -19.12121977829014 ], [ 23.868608481100107, -19.121259158620202 ], [ 23.869808277839454, -19.121499601741576 ], [ 23.870897434259973, -19.12221010113895 ], [ 23.872158219370711, -19.122780575186706 ], [ 23.873287454827071, -19.123190468200697 ], [ 23.874368883599132, -19.123541554890881 ], [ 23.87539893726175, -19.123831572648797 ], [ 23.87587755858933, -19.123768608238549 ], [ 23.876358272484733, -19.123689821630503 ], [ 23.876758954229427, -19.124108244868918 ], [ 23.876817915289365, -19.124768289548392 ], [ 23.877018116186839, -19.125769731636598 ], [ 23.87729861007017, -19.126730542804879 ], [ 23.877838422095298, -19.127549127506171 ], [ 23.878729178057288, -19.128128351024923 ], [ 23.879879331570038, -19.128459108194512 ], [ 23.880928298992821, -19.128129787735308 ], [ 23.881788689731565, -19.127119992329693 ], [ 23.882387437379197, -19.126180094916403 ], [ 23.88300942186769, -19.125579254541407 ], [ 23.882797547299738, -19.238561355588033 ], [ 23.882948156921714, -19.329715173743061 ], [ 23.882948260057045, -19.33249526984827 ], [ 23.684405924542389, -19.332725305143299 ], [ 23.662245997508073, -19.382480223175715 ], [ 23.66038638122081, -19.388269653018444 ], [ 23.660084915337926, -19.389211592686308 ], [ 23.65786465515011, -19.394681628924584 ], [ 23.656134863373584, -19.399049585713275 ], [ 23.654015770504067, -19.403439383379798 ], [ 23.652896111547427, -19.406018390162828 ], [ 23.651745827917285, -19.408979302415112 ], [ 23.650345914754052, -19.411966848283743 ], [ 23.649004988496785, -19.414918332046973 ], [ 23.647145441798919, -19.418347957667795 ], [ 23.645214988686881, -19.421619210306712 ], [ 23.643864668083978, -19.424428240591872 ], [ 23.642165268311317, -19.42751683527387 ], [ 23.641385074747717, -19.429266940281735 ], [ 23.607815385556258, -19.51251185495228 ], [ 23.529044673500326, -19.525240625803981 ], [ 23.523272893172365, -19.518361467152701 ], [ 23.519913839877528, -19.515190650683206 ], [ 23.516892662474444, -19.5114601622214 ], [ 23.515584199787106, -19.507020014228953 ], [ 23.513432580154983, -19.501612512161941 ], [ 23.508914191306605, -19.496092352468132 ], [ 23.501503986447869, -19.490392373786893 ], [ 23.490622461532684, -19.485222541533254 ], [ 23.481682650033182, -19.480713071189069 ], [ 23.477562548299996, -19.476723398945964 ], [ 23.471943466562376, -19.471443257103225 ], [ 23.467152159813185, -19.466723634602328 ], [ 23.464752674741661, -19.461796252121161 ], [ 23.462421894926454, -19.457755016129006 ], [ 23.459713364949945, -19.456833871064319 ], [ 23.455932924288458, -19.453504691176647 ], [ 23.451803505124222, -19.451616346334067 ], [ 23.447233429536137, -19.450684861632119 ], [ 23.442253304911986, -19.44870556255745 ], [ 23.440101894546434, -19.443206815201908 ], [ 23.440572867806512, -19.439345701067875 ], [ 23.438491857151348, -19.436028179508693 ], [ 23.434522698424612, -19.434056321148713 ], [ 23.432601882526008, -19.431227421461752 ], [ 23.426591857344111, -19.430525977735421 ], [ 23.422462466296317, -19.428555615380191 ], [ 23.417072165297697, -19.424716510663796 ], [ 23.411531073955441, -19.420318508947407 ], [ 23.405122429114833, -19.417438570007398 ], [ 23.403951325514239, -19.41579839944135 ], [ 23.309400951647007, -19.422469846605555 ], [ 23.28306947701418, -19.47684242730076 ], [ 23.282029955016469, -19.478994417131904 ], [ 23.279729680783969, -19.483324615123326 ], [ 23.27869036367095, -19.485343238562695 ], [ 23.278169632876029, -19.486222589170769 ], [ 23.276809605449309, -19.486662396067953 ], [ 23.275830959651596, -19.486613284446904 ], [ 23.274760982280135, -19.486403336539496 ], [ 23.273780775967396, -19.486704517135038 ], [ 23.271280017402638, -19.489562491227812 ], [ 23.272050786742494, -19.490202929065763 ], [ 23.273349437992859, -19.491243253991314 ], [ 23.274310995021867, -19.49219181660639 ], [ 23.275100685872822, -19.493004082674048 ], [ 23.275449519726362, -19.494612383237918 ], [ 23.274919405583294, -19.496651097186533 ], [ 23.274619884333713, -19.498082776149754 ], [ 23.274480547382296, -19.499600978964036 ], [ 23.274379522964843, -19.501211996650802 ], [ 23.274511320692785, -19.502722245440776 ], [ 23.274660056779027, -19.505111725402543 ], [ 23.274999549045265, -19.507750574562827 ], [ 23.275769994515247, -19.509690530672788 ], [ 23.276760120904669, -19.512013312515872 ], [ 23.277589660244381, -19.513872135602753 ], [ 23.278421368204089, -19.514910561843188 ], [ 23.279371097981439, -19.516279423989971 ], [ 23.280111289465246, -19.517401100123084 ], [ 23.280851442561993, -19.518870823402374 ], [ 23.281570425795767, -19.520211635451702 ], [ 23.282211178587133, -19.521660617887623 ], [ 23.283090477565153, -19.523341068988543 ], [ 23.283630196374631, -19.524260791988667 ], [ 23.284200666584628, -19.525370480298605 ], [ 23.284839555605942, -19.52671096284439 ], [ 23.28549017284886, -19.528300096473814 ], [ 23.286100290314721, -19.529819006537721 ], [ 23.286510403056866, -19.531219600962054 ], [ 23.286689695012129, -19.532528882277781 ], [ 23.286781385934059, -19.533770015463983 ], [ 23.286781441510289, -19.534979146458525 ], [ 23.286720350789668, -19.535998190789645 ], [ 23.286479935630645, -19.536799562156812 ], [ 23.286100272431305, -19.537688524390987 ], [ 23.285129521251672, -19.538889296139054 ], [ 23.284530621559771, -19.539689245959526 ], [ 23.283660962474112, -19.540327655376725 ], [ 23.282880625268156, -19.540778830693817 ], [ 23.282260788956151, -19.541187699355415 ], [ 23.281480771825631, -19.541968837532362 ], [ 23.281320592368363, -19.542677856586568 ], [ 23.281370186353808, -19.543658917299084 ], [ 23.281801114546475, -19.545538734915645 ], [ 23.282470544729374, -19.547127951865487 ], [ 23.283460510451814, -19.548948964014816 ], [ 23.284700491565737, -19.550777741425375 ], [ 23.285410037958062, -19.551727511901053 ], [ 23.286100479274161, -19.552957450923277 ], [ 23.286821406038751, -19.55450843614399 ], [ 23.287500325827764, -19.555516839546382 ], [ 23.287950606277402, -19.55633675437203 ], [ 23.28836068006936, -19.557219791078332 ], [ 23.288551445513889, -19.557959580123022 ], [ 23.288261383393071, -19.558659052880767 ], [ 23.286939748170205, -19.559248230951091 ], [ 23.285921240883365, -19.559556093091903 ], [ 23.285280366544175, -19.560057547532182 ], [ 23.284090125614284, -19.561257438388161 ], [ 23.283180302224476, -19.562257289031812 ], [ 23.282770152277969, -19.563417325061021 ], [ 23.283090603465652, -19.564817567681388 ], [ 23.283680068539581, -19.566447143282723 ], [ 23.284429408097271, -19.567577879905283 ], [ 23.284980741635859, -19.568126996870905 ], [ 23.285890655962639, -19.568668490789431 ], [ 23.287160921061602, -19.568867877084731 ], [ 23.28687103871534, -19.569926695008213 ], [ 23.28685007268874, -19.57123743994017 ], [ 23.287290644461031, -19.572647190978273 ], [ 23.288141214669796, -19.574017877407918 ], [ 23.28889092339708, -19.574807330250902 ], [ 23.290519796859201, -19.575756184130274 ], [ 23.291400939350375, -19.577506664109485 ], [ 23.292020842052796, -19.578815406337604 ], [ 23.292520538540433, -19.579395938703104 ], [ 23.29334085531023, -19.579656800231316 ], [ 23.294201128664955, -19.579777690962803 ], [ 23.29511086277612, -19.580176756919734 ], [ 23.29633169041125, -19.580665174808416 ], [ 23.297491396779112, -19.581365790529986 ], [ 23.298370539813462, -19.582087907962087 ], [ 23.298820792545829, -19.583287485634532 ], [ 23.298940710259235, -19.585125371647706 ], [ 23.29869086678567, -19.587135844180544 ], [ 23.298410484258916, -19.589175576800553 ], [ 23.297849887162581, -19.590805149203209 ], [ 23.297020230858912, -19.592955740376073 ], [ 23.296430663628602, -19.594454111374603 ], [ 23.295600980347011, -19.595985442158536 ], [ 23.294321321274502, -19.597684510273989 ], [ 23.293991178435583, -19.598266308824755 ], [ 23.293310221330245, -19.598905492251873 ], [ 23.292249761149776, -19.599685566504203 ], [ 23.290470218671739, -19.601294499167899 ], [ 23.203398508798333, -19.566596553660581 ], [ 23.203940351497941, -19.565317515222031 ], [ 23.203919222026144, -19.56500780010937 ], [ 23.204008949886511, -19.56451777250987 ], [ 23.204249268702213, -19.56388828774622 ], [ 23.204409420293601, -19.563197428716588 ], [ 23.204458957701981, -19.56269818275366 ], [ 23.204258800534166, -19.562127776714583 ], [ 23.203860240252233, -19.561237832315047 ], [ 23.203450178406879, -19.560506038549935 ], [ 23.203539780081552, -19.559738027479387 ], [ 23.203709465899585, -19.559047211432421 ], [ 23.203339575294848, -19.558329154153117 ], [ 23.203579875650973, -19.557277045716418 ], [ 23.204110082827061, -19.556479337419205 ], [ 23.204298766690037, -19.555316259619961 ], [ 23.203808524381909, -19.554468851364618 ], [ 23.203709532397468, -19.553507907035133 ], [ 23.202898911867312, -19.552787905418469 ], [ 23.201828868587874, -19.55282837948047 ], [ 23.200939885568342, -19.553197350077177 ], [ 23.200119717799815, -19.553268300073206 ], [ 23.198859125336124, -19.552729347352258 ], [ 23.197499016864533, -19.551887102519199 ], [ 23.196179188364734, -19.551158027784737 ], [ 23.194659015525659, -19.550509410623885 ], [ 23.192898320859761, -19.549690205337161 ], [ 23.192309237157414, -19.54913838825949 ], [ 23.191799761791128, -19.548878467026817 ], [ 23.191248555288688, -19.548740398997072 ], [ 23.190308133034399, -19.548668385161918 ], [ 23.189468962911128, -19.548490600385286 ], [ 23.188089871206959, -19.547826741952598 ], [ 23.187458653215263, -19.547719942809717 ], [ 23.186598459404888, -19.548468655915151 ], [ 23.186209235351917, -19.549427407575571 ], [ 23.186268443730764, -19.550218678929756 ], [ 23.185959513569081, -19.550377746996219 ], [ 23.185408311362107, -19.550298421505534 ], [ 23.1846892170527, -19.549827353992473 ], [ 23.183958641454868, -19.549329112027049 ], [ 23.183270007594771, -19.549439000084064 ], [ 23.182369892723855, -19.549588608100443 ], [ 23.182058807038164, -19.549110337485711 ], [ 23.181499926708405, -19.548427542480457 ], [ 23.180338277295586, -19.547789471535832 ], [ 23.179848240739918, -19.546989463876319 ], [ 23.178978468313041, -19.546739170829568 ], [ 23.178209807976394, -19.546530014751951 ], [ 23.177219813298475, -19.545718685017125 ], [ 23.175859753950323, -19.544959901660636 ], [ 23.174469295769402, -19.543970449055717 ], [ 23.172848230434042, -19.542860150705671 ], [ 23.171949753603343, -19.542810834595421 ], [ 23.171068721022031, -19.542788713891504 ], [ 23.16989947009646, -19.542837585236541 ], [ 23.169348116346946, -19.542328809611149 ], [ 23.16875861618994, -19.542228917682433 ], [ 23.168428701171472, -19.542819521141347 ], [ 23.167919609062743, -19.543368618713551 ], [ 23.167379792395433, -19.543400031705893 ], [ 23.166628245222789, -19.542940045114179 ], [ 23.165869009308274, -19.542179439543201 ], [ 23.164898249504514, -19.541759114453178 ], [ 23.163627761914725, -19.541389376170731 ], [ 23.162878212968586, -19.540719204222171 ], [ 23.161638583146509, -19.539280614058502 ], [ 23.160518778773316, -19.538357853089604 ], [ 23.159738887141263, -19.53756774670908 ], [ 23.158498963296015, -19.537519037077946 ], [ 23.15760837541896, -19.537449347420115 ], [ 23.157318260551481, -19.53673835428739 ], [ 23.157509126427971, -19.536190063162728 ], [ 23.157928622316817, -19.535740018446873 ], [ 23.158348148133367, -19.535111431427698 ], [ 23.158169039063726, -19.534369316073612 ], [ 23.157509150347877, -19.533600100073809 ], [ 23.156627721717083, -19.53332026871027 ], [ 23.155828557595378, -19.533208058066922 ], [ 23.155597807393786, -19.532601298690903 ], [ 23.155859194416799, -19.532071419648815 ], [ 23.156248417090715, -19.53153987652815 ], [ 23.15662795721353, -19.530978906849796 ], [ 23.156618291506827, -19.529970899679636 ], [ 23.156208244219552, -19.529349745502824 ], [ 23.155538590950737, -19.529088977939953 ], [ 23.155018074790529, -19.529199545205465 ], [ 23.154607913785856, -19.528888007172387 ], [ 23.154499223918169, -19.528589178629964 ], [ 23.15467855371676, -19.527909756787647 ], [ 23.155038917769367, -19.527082020138185 ], [ 23.154678651742543, -19.526458835035058 ], [ 23.153938544449272, -19.526570632961924 ], [ 23.153009558379182, -19.527020543526799 ], [ 23.152258039931716, -19.527319860579041 ], [ 23.151477794802243, -19.526900359736214 ], [ 23.151048886125157, -19.52630170554842 ], [ 23.151027789977459, -19.525320765664532 ], [ 23.151227998987178, -19.524410924948945 ], [ 23.151409416227313, -19.52361851581054 ], [ 23.151199337936546, -19.523280789186 ], [ 23.150358304804129, -19.522980778345833 ], [ 23.148729490183602, -19.522512076923903 ], [ 23.146617947819276, -19.520920123169201 ], [ 23.144878392832478, -19.518740043734521 ], [ 23.144517967199949, -19.518950779343722 ], [ 23.144088745713571, -19.519552168394295 ], [ 23.143468912268737, -19.520082593662227 ], [ 23.142759193167134, -19.520029511246996 ], [ 23.142217498862628, -19.520261982304682 ], [ 23.142297641184712, -19.520940362108977 ], [ 23.14242932852806, -19.521901486373647 ], [ 23.142248262764696, -19.522449807026721 ], [ 23.14181884477766, -19.522972089971205 ], [ 23.140998879224096, -19.523650715239 ], [ 23.140708998567696, -19.52420981763284 ], [ 23.139799163742687, -19.524189671168315 ], [ 23.138877664118013, -19.524122004015933 ], [ 23.137609261081256, -19.52452049832603 ], [ 23.136688005614371, -19.525191839914477 ], [ 23.136129435725955, -19.525959830695495 ], [ 23.135497851595328, -19.526169251019795 ], [ 23.134837991281653, -19.526261013954738 ], [ 23.134477627293812, -19.526790388446695 ], [ 23.134178053595139, -19.527541531706259 ], [ 23.133728014796333, -19.528459192728857 ], [ 23.133008868919671, -19.529441102498122 ], [ 23.132238182727601, -19.53002952221274 ], [ 23.131387626748818, -19.530619814289466 ], [ 23.131088076036434, -19.531251173016447 ], [ 23.1308686861064, -19.531880655662949 ], [ 23.13037868079515, -19.53229865653195 ], [ 23.129758725530653, -19.532890050829291 ], [ 23.129499295627593, -19.533650417826898 ], [ 23.129287544542127, -19.534020036212731 ], [ 23.128858530511899, -19.534008929005065 ], [ 23.128389186578101, -19.53385072644349 ], [ 23.127529043213897, -19.533778776284233 ], [ 23.126308089668189, -19.533978536927844 ], [ 23.125278127951525, -19.534068474385716 ], [ 23.124677487278223, -19.534388744521742 ], [ 23.124318819896665, -19.534649165600165 ], [ 23.123687446429376, -19.534589605413423 ], [ 23.122817594850034, -19.534659965301699 ], [ 23.122478159366096, -19.535110314263502 ], [ 23.122348409221914, -19.535521001517381 ], [ 23.121848757070968, -19.536008991664726 ], [ 23.121188723675516, -19.536509759741861 ], [ 23.120338208749544, -19.536968918885748 ], [ 23.119067759989537, -19.53694916951606 ], [ 23.118068255633233, -19.536639195912247 ], [ 23.117248267533199, -19.536359474383097 ], [ 23.116588355373437, -19.535958492914098 ], [ 23.115749012433632, -19.536060606360802 ], [ 23.115008816246039, -19.536450219853318 ], [ 23.11431839162957, -19.53661859590046 ], [ 23.113927508875637, -19.536499161069589 ], [ 23.113608816086785, -19.535928082361835 ], [ 23.11268777737255, -19.535548405140034 ], [ 23.111838782054978, -19.535890011469032 ], [ 23.111108410032639, -19.536279657385187 ], [ 23.11051894981841, -19.536129858246333 ], [ 23.109779062689242, -19.536297973133895 ], [ 23.109248675771592, -19.536297619471142 ], [ 23.109097879674415, -19.536030198365268 ], [ 23.108678493842486, -19.535458615871182 ], [ 23.108647949064139, -19.534888950113086 ], [ 23.108607672415403, -19.534409635837289 ], [ 23.108357979875212, -19.533649050533135 ], [ 23.108518154554066, -19.533238523941662 ], [ 23.109067570711648, -19.532918056103512 ], [ 23.109368938427938, -19.532569244536646 ], [ 23.109387841084828, -19.53211056133863 ], [ 23.109158943059388, -19.531469858479536 ], [ 23.109307850875055, -19.530939496767228 ], [ 23.109277190518799, -19.530118972545456 ], [ 23.108798578544132, -19.529809255911921 ], [ 23.107978316299857, -19.529100096174275 ], [ 23.108287323657571, -19.528281247247552 ], [ 23.108518139437546, -19.527430372865755 ], [ 23.10797834402744, -19.526381338394248 ], [ 23.106818558636107, -19.526029835314471 ], [ 23.105397527980319, -19.526101908321092 ], [ 23.103837504962808, -19.526200400390067 ], [ 23.102607259027181, -19.526578494881711 ], [ 23.101798508153035, -19.526759795989619 ], [ 23.101327435650489, -19.526330319178204 ], [ 23.101008944338737, -19.525411184708471 ], [ 23.100667415320409, -19.524510014295117 ], [ 23.099618455017854, -19.524220036387675 ], [ 23.098407274570693, -19.524760914843913 ], [ 23.097257136397516, -19.525360849562571 ], [ 23.096097242095695, -19.525838689084765 ], [ 23.095197132627369, -19.525838706964763 ], [ 23.093627183099596, -19.525740443336794 ], [ 23.09248865545398, -19.525911009968699 ], [ 23.091147698784912, -19.526209370249337 ], [ 23.090218797929701, -19.52587022222799 ], [ 23.089408128316045, -19.525701162884666 ], [ 23.08838777399227, -19.526369492031701 ], [ 23.08741684189031, -19.526459512557757 ], [ 23.086466964171269, -19.526249057803579 ], [ 23.085427495548242, -19.526499178437593 ], [ 23.084837983018019, -19.527269105492479 ], [ 23.084357493649541, -19.528360498050731 ], [ 23.083798577536999, -19.529250353471735 ], [ 23.082886763497733, -19.529790382799789 ], [ 23.081686970845247, -19.53003966753138 ], [ 23.080437733118114, -19.530180214247146 ], [ 23.078908210805118, -19.530461702566345 ], [ 23.077878220888834, -19.530610128278195 ], [ 23.077616749569952, -19.531058527555142 ], [ 23.077298122960208, -19.531759749925087 ], [ 23.076487680087006, -19.532020027439618 ], [ 23.075516684680696, -19.532428636376903 ], [ 23.074387669381764, -19.53295846944425 ], [ 23.073937423175824, -19.533381036352946 ], [ 23.073258517167528, -19.53392898682063 ], [ 23.072417257827144, -19.534469322470173 ], [ 23.071686876049512, -19.535159380102911 ], [ 23.07164656131409, -19.536008918378485 ], [ 23.07174764574328, -19.536569908216002 ], [ 23.071477059731031, -19.537461202674649 ], [ 23.07081706728416, -19.537979861238767 ], [ 23.070036924809791, -19.53824930300447 ], [ 23.069437852889831, -19.538639451977357 ], [ 23.068987862289852, -19.53870041283982 ], [ 23.068266777599803, -19.53849103908691 ], [ 23.067837735454081, -19.538588264986746 ], [ 23.067248331990807, -19.539109533233553 ], [ 23.066807758955751, -19.539190876813343 ], [ 23.066086562976551, -19.539467385982526 ], [ 23.065907474517694, -19.540038229386447 ], [ 23.065607848279864, -19.540739526625323 ], [ 23.065016685499735, -19.541098061836209 ], [ 23.064106909420488, -19.541158889750196 ], [ 23.063117032494954, -19.541210257872343 ], [ 23.062268024132553, -19.541067995790701 ], [ 23.061728282544184, -19.540879877243704 ], [ 23.061278180873312, -19.540958897749157 ], [ 23.060208151142177, -19.541009834149651 ], [ 23.058796802155484, -19.540930168232723 ], [ 23.057966931919093, -19.540828665362746 ], [ 23.057627425531905, -19.540899213153853 ], [ 23.057368246459358, -19.540888820991253 ], [ 23.057017275525109, -19.540778512040522 ], [ 23.056576491185094, -19.540638353456192 ], [ 23.056387723633229, -19.540458831879356 ], [ 23.056057773851325, -19.540269531720128 ], [ 23.055706695526162, -19.540229278157113 ], [ 23.055147813506906, -19.540260255887318 ], [ 23.054617540069295, -19.540239402504049 ], [ 23.054136891961914, -19.540139708333289 ], [ 23.053717282782817, -19.539690041067036 ], [ 23.053267172493186, -19.53931027142217 ], [ 23.05237660258349, -19.538889771879941 ], [ 23.051357862206604, -19.53857933244073 ], [ 23.050797188972801, -19.538458870148773 ], [ 23.050316414858766, -19.538738837945434 ], [ 23.049696504182908, -19.539219208100647 ], [ 23.04913770644049, -19.539440003182193 ], [ 23.04840713907333, -19.539429376605739 ], [ 23.047817734705554, -19.539279375359783 ], [ 23.047386836216958, -19.53892907135587 ], [ 23.047077673574318, -19.53839861330275 ], [ 23.046856638328347, -19.537830200649449 ], [ 23.046587497035141, -19.537589226014227 ], [ 23.046288227289722, -19.53694808174658 ], [ 23.045826651923548, -19.536749029232581 ], [ 23.045576785577559, -19.536270860089324 ], [ 23.045746373385775, -19.536009602181938 ], [ 23.045517604681805, -19.535490865795015 ], [ 23.045076857679529, -19.535348420318229 ], [ 23.044567842035175, -19.535110694851859 ], [ 23.04407744468439, -19.534949905137918 ], [ 23.043738073564594, -19.535201224402197 ], [ 23.043537749351501, -19.535419379401741 ], [ 23.043287756190182, -19.535470034238799 ], [ 23.042877689205575, -19.535481422949132 ], [ 23.042496343536975, -19.535169789364389 ], [ 23.042267298215076, -19.534750486281556 ], [ 23.041967878021502, -19.534290129876428 ], [ 23.041496914300062, -19.534068417114685 ], [ 23.04112694599117, -19.533698083678445 ], [ 23.040876986004164, -19.533339685307919 ], [ 23.040466970942514, -19.532939758117514 ], [ 23.039948038193458, -19.53281948575416 ], [ 23.039547501753233, -19.532681761027607 ], [ 23.038996341107172, -19.532418937139202 ], [ 23.038616776013313, -19.532010128336882 ], [ 23.038317201807743, -19.531628863740863 ], [ 23.038116884137054, -19.531040211980681 ], [ 23.03776777886571, -19.530369409071692 ], [ 23.037377026311937, -19.53003963637504 ], [ 23.036818052355805, -19.529790325402725 ], [ 23.036196230081892, -19.52958813531929 ], [ 23.035686957224254, -19.529499541249102 ], [ 23.035048068367558, -19.528709670777594 ], [ 23.034996451768677, -19.528370403641269 ], [ 23.03475606580044, -19.527858372556771 ], [ 23.034536811167243, -19.527350974446321 ], [ 23.034367204420189, -19.526611066020923 ], [ 23.034348070347292, -19.526120555789156 ], [ 23.034267975779759, -19.525509942638674 ], [ 23.034107666602569, -19.525111335773705 ], [ 23.034126736104778, -19.52486058433783 ], [ 23.034107536309278, -19.524381372784958 ], [ 23.033567781140885, -19.523960398704158 ], [ 23.033047092009397, -19.52344008774589 ], [ 23.032867905682501, -19.522960020465224 ], [ 23.03261793021861, -19.52235979807789 ], [ 23.032606661304293, -19.522000406111371 ], [ 23.032307174470969, -19.52165981192028 ], [ 23.032036219726255, -19.521631242675234 ], [ 23.0316662406026, -19.521471065445244 ], [ 23.031626199017147, -19.521190617479924 ], [ 23.031696809970882, -19.520840704347204 ], [ 23.03172713385672, -19.520551594384745 ], [ 23.031677611045748, -19.520212336976812 ], [ 23.031296264024849, -19.519760565332437 ], [ 23.030796440763101, -19.519391775973848 ], [ 23.030487611933239, -19.518820614856917 ], [ 23.030426302556219, -19.51821010059551 ], [ 23.030437743502397, -19.517640655814425 ], [ 23.030617215779273, -19.517270986904439 ], [ 23.030786863317122, -19.517100140304631 ], [ 23.030977540122951, -19.516949745916374 ], [ 23.030926061512542, -19.51673929508916 ], [ 23.030716246431805, -19.516351720327087 ], [ 23.030327217610218, -19.515890866301923 ], [ 23.029846475258733, -19.515522176751794 ], [ 23.029566193090037, -19.515111622601278 ], [ 23.029606116284729, -19.51466210799029 ], [ 23.029417422620206, -19.514480300303639 ], [ 23.029247663520369, -19.514470349178506 ], [ 23.029037918448342, -19.514471483567842 ], [ 23.028946224370376, -19.514310534572878 ], [ 23.028887119624699, -19.513880828003213 ], [ 23.028856680732947, -19.513340537881867 ], [ 23.02874799567045, -19.51263259164871 ], [ 23.02849602782987, -19.511871896161946 ], [ 23.028267181492623, -19.511280821548549 ], [ 23.027927847538013, -19.511181820857864 ], [ 23.02777710194675, -19.511031853997196 ], [ 23.027746658539016, -19.510792136332853 ], [ 23.027697093766392, -19.510561355979675 ], [ 23.027866733080938, -19.510141917435831 ], [ 23.028137560157617, -19.509490248247069 ], [ 23.028297784943362, -19.509000700695108 ], [ 23.028387471359061, -19.507801151255642 ], [ 23.028166068998427, -19.50671292782906 ], [ 23.027597795872843, -19.505991211606929 ], [ 23.027366983560153, -19.505431764087348 ], [ 23.027357458419129, -19.504981983289849 ], [ 23.027317370671117, -19.504461980149518 ], [ 23.026577255239729, -19.504132568017901 ], [ 23.026037696083055, -19.504041526824253 ], [ 23.025827676477874, -19.503592926919783 ], [ 23.025356702979245, -19.503341797203035 ], [ 23.024746289129133, -19.503293309090342 ], [ 23.02391656942774, -19.50330239512563 ], [ 23.023515887659595, -19.50320305651222 ], [ 23.023117253684529, -19.503011069207847 ], [ 23.022155927716149, -19.502612646732562 ], [ 23.021137648057639, -19.502521263605839 ], [ 23.020647407081007, -19.50265194807557 ], [ 23.020277234148956, -19.502631864531143 ], [ 23.019697473552213, -19.502391431056701 ], [ 23.019096594662368, -19.502442413541779 ], [ 23.018406045445928, -19.502592345353385 ], [ 23.018087533577884, -19.502502479671826 ], [ 23.017826224585555, -19.502263767806014 ], [ 23.017317077150487, -19.502120887906823 ], [ 23.016527262288925, -19.502281572803792 ], [ 23.015707171673785, -19.50262062487737 ], [ 23.014677194858503, -19.50323198393318 ], [ 23.013906673892784, -19.503501239831451 ], [ 23.013227501792169, -19.503493017393371 ], [ 23.012315830468687, -19.503212330990202 ], [ 23.011276422254582, -19.502921902576968 ], [ 23.010507720196866, -19.502793404643953 ], [ 23.00995656800642, -19.502602815466368 ], [ 23.009635972726695, -19.502121953949906 ], [ 23.009206872577316, -19.501701516985236 ], [ 23.009046626648882, -19.501501764771891 ], [ 23.008466902207733, -19.500721171356481 ], [ 22.960015803648389, -19.519579365355611 ], [ 22.798043250174818, -19.43807830458455 ], [ 22.797644740692977, -19.437686973829166 ], [ 22.796883613530209, -19.438136153917053 ], [ 22.795863390564804, -19.438185883069227 ], [ 22.794343112423203, -19.437927207128105 ], [ 22.793404612445404, -19.437676907949541 ], [ 22.792744824108187, -19.437466876079689 ], [ 22.791804463373381, -19.437187178928596 ], [ 22.790543636798382, -19.436796869691637 ], [ 22.78928459840926, -19.436447240825778 ], [ 22.787913226137672, -19.435988381689565 ], [ 22.787403909548487, -19.435847130544623 ], [ 22.784403647391908, -19.434367215092458 ], [ 22.781214512994733, -19.432269053531517 ], [ 22.779762989357263, -19.431506780914525 ], [ 22.776552877301825, -19.430237754295987 ], [ 22.773844553753246, -19.42983757098056 ], [ 22.771782722287227, -19.42946884128293 ], [ 22.770453148247142, -19.429326511654676 ], [ 22.768883580608847, -19.429067294647098 ], [ 22.765062914462174, -19.427997311562624 ], [ 22.763832783708551, -19.427268060155487 ], [ 22.762524186669726, -19.426246751582159 ], [ 22.758953504174535, -19.424658593225146 ], [ 22.757162530675647, -19.424628263825507 ], [ 22.755243861651881, -19.424398178692346 ], [ 22.75391244490147, -19.423998100675302 ], [ 22.753143821387436, -19.423628996144686 ], [ 22.752833014447031, -19.423468675175862 ], [ 22.751863844155508, -19.422849609902226 ], [ 22.750833884388086, -19.421497945953725 ], [ 22.750002458392242, -19.420427858138943 ], [ 22.749452955805424, -19.418428671108835 ], [ 22.749243193374308, -19.417048748096466 ], [ 22.74859281237627, -19.41566804995562 ], [ 22.746183827700747, -19.413818739182663 ], [ 22.74475328351647, -19.413198713989612 ], [ 22.743662147719625, -19.412849941127288 ], [ 22.74260353980825, -19.412569180677274 ], [ 22.741102494954106, -19.411828871178674 ], [ 22.739702485638084, -19.41099885758306 ], [ 22.738353952612581, -19.410058462371889 ], [ 22.736782409998501, -19.408467945984199 ], [ 22.735942952915369, -19.406068985695576 ], [ 22.735973688152757, -19.403978888898749 ], [ 22.736173856279002, -19.401960024337196 ], [ 22.736353121333011, -19.400989558500033 ], [ 22.736232963668808, -19.398970724871024 ], [ 22.735582701213495, -19.397481516750446 ], [ 22.735342144268824, -19.396598522720968 ], [ 22.734962736805169, -19.395771057786945 ], [ 22.732843608867174, -19.393028725817491 ], [ 22.732292417897217, -19.392091587733287 ], [ 22.731083211251107, -19.39032955227421 ], [ 22.72990251733199, -19.388579007709104 ], [ 22.728462208512099, -19.386761106999369 ], [ 22.726583512848894, -19.383559394204596 ], [ 22.725912253715045, -19.382300508065704 ], [ 22.725332270186513, -19.381171067773099 ], [ 22.724662855183986, -19.379792421783304 ], [ 22.724012447875143, -19.37880259160826 ], [ 22.722732660265375, -19.378061438514898 ], [ 22.720813645301778, -19.37776322147953 ], [ 22.717162953408081, -19.377421146679801 ], [ 22.715951811254602, -19.377421641370429 ], [ 22.714992548233838, -19.377299619386132 ], [ 22.71443358459446, -19.376841454091533 ], [ 22.713272048247038, -19.375490930004986 ], [ 22.712043609689019, -19.374512789995006 ], [ 22.710773453563363, -19.373202159474484 ], [ 22.709852097031334, -19.372162907623327 ], [ 22.708723024363334, -19.370780951124818 ], [ 22.705442269689673, -19.367790549197384 ], [ 22.703801941604144, -19.365993647660456 ], [ 22.703523393305947, -19.363693465357848 ], [ 22.70384189457674, -19.362520646913527 ], [ 22.704051849346179, -19.361713139831792 ], [ 22.704542030677185, -19.360733622356793 ], [ 22.705013188817663, -19.358242172772123 ], [ 22.704942384861123, -19.356542311012273 ], [ 22.704902405200428, -19.355574838749913 ], [ 22.704662103827097, -19.354422898871515 ], [ 22.704402620673889, -19.353024506073986 ], [ 22.703801941674815, -19.351682439493825 ], [ 22.703511956031544, -19.351434059276347 ], [ 22.702953223796339, -19.350923889750323 ], [ 22.702521967594937, -19.350514056660568 ], [ 22.701892454153278, -19.349772881730186 ], [ 22.700952236696448, -19.349034008933955 ], [ 22.700042423363801, -19.348552964412661 ], [ 22.698922917124506, -19.348133691071812 ], [ 22.698081550740657, -19.348254228022284 ], [ 22.695873064367582, -19.348932182669696 ], [ 22.693992352048152, -19.349293831849163 ], [ 22.691913099739018, -19.349473253678983 ], [ 22.690871848102422, -19.349244314355257 ], [ 22.689761769226827, -19.348802456615349 ], [ 22.689181933532605, -19.34848191608102 ], [ 22.687171499012262, -19.346792945405706 ], [ 22.685822809506789, -19.345343745965643 ], [ 22.685202934323556, -19.343002667510135 ], [ 22.685111421455975, -19.341944432843341 ], [ 22.685311718893733, -19.340603571889964 ], [ 22.685601596997007, -19.33959554329758 ], [ 22.685851446999493, -19.33849457507101 ], [ 22.685863017746939, -19.335895916485725 ], [ 22.685521591577626, -19.334905932323764 ], [ 22.684972146411923, -19.334513287656762 ], [ 22.684272233767523, -19.334442702870749 ], [ 22.683442604508045, -19.334443491944079 ], [ 22.683211890243097, -19.332785410812182 ], [ 22.683652493433925, -19.332054165749813 ], [ 22.683892832310985, -19.331174588441119 ], [ 22.683562602878133, -19.32975532471859 ], [ 22.682931348549666, -19.329066053925917 ], [ 22.681582959314895, -19.328046188891193 ], [ 22.677642354181614, -19.325945439365647 ], [ 22.675572754330329, -19.325295423334587 ], [ 22.67431190883287, -19.325015088800733 ], [ 22.67124289540239, -19.323625590780889 ], [ 22.670401899200382, -19.322905374311997 ], [ 22.668261736899908, -19.320286506430858 ], [ 22.668212288643073, -19.320256768653724 ], [ 22.682702526271093, -19.313955530587897 ], [ 22.706412984345224, -19.315575982455801 ], [ 22.704353066745103, -19.311846261112812 ], [ 22.700563267636632, -19.309945942316752 ], [ 22.696702632598289, -19.307647318958235 ], [ 22.697372169157816, -19.302748351784512 ], [ 22.702192138058198, -19.29773656229883 ], [ 22.704282571951182, -19.293747047606299 ], [ 22.704852671060522, -19.289726388922464 ], [ 22.703632054748322, -19.286818405260135 ], [ 22.701902099441021, -19.28365821892217 ], [ 22.699851613945267, -19.279356798364834 ], [ 22.69881222660231, -19.275329217417951 ], [ 22.697612501549607, -19.270480180913609 ], [ 22.695043282033978, -19.267148991940541 ], [ 22.694013254057396, -19.26214974112521 ], [ 22.69263233873113, -19.258910621484119 ], [ 22.693202504917352, -19.254819939514352 ], [ 22.696153277573622, -19.249699945131791 ], [ 22.69386260979104, -19.244922202292546 ], [ 22.690421715307114, -19.242470583278116 ], [ 22.69369264913048, -19.239452264278832 ], [ 22.700103396819216, -19.234953429540852 ], [ 22.696563327308649, -19.21760230054419 ], [ 22.693751773290316, -19.21346490265547 ], [ 22.691491695130967, -19.211423988307569 ], [ 22.690291855837987, -19.207223471560351 ], [ 22.688172858960943, -19.201805116277907 ], [ 22.683072361286872, -19.197633103924144 ], [ 22.678613100337564, -19.196034980281418 ], [ 22.676011290681402, -19.194804959880866 ], [ 22.671122744270843, -19.193036336156968 ], [ 22.667672236959383, -19.192026032145744 ], [ 22.669762783668531, -19.188195028818026 ], [ 22.668492532890319, -19.182705801289337 ], [ 22.667102113812575, -19.179635938283134 ], [ 22.667161181780308, -19.175286253321435 ], [ 22.665692335545579, -19.172367219240869 ], [ 22.660441305709185, -19.172215986903218 ], [ 22.658492162502235, -19.167356752250345 ], [ 22.654190861905448, -19.166095947980679 ], [ 22.649580796296991, -19.168446179784247 ], [ 22.644492039210423, -19.169337451567174 ], [ 22.640181406751591, -19.163967969205888 ], [ 22.638592427016995, -19.162898618160337 ], [ 22.634861666210927, -19.157867770623337 ], [ 22.635271640756514, -19.153197588509737 ], [ 22.636440958399398, -19.148388412886877 ], [ 22.633372025370686, -19.144566921220349 ], [ 22.631741139188058, -19.141000151246541 ], [ 22.626020908385712, -19.138668329390768 ], [ 22.625131975339446, -19.136008704122055 ], [ 22.624962231739875, -19.13464930782397 ], [ 22.62483074836231, -19.133658541226854 ], [ 22.619791420565914, -19.131259320885249 ], [ 22.616670882314438, -19.130899168292167 ], [ 22.614040817453152, -19.13109856342842 ], [ 22.609741634351082, -19.129920410770453 ], [ 22.609032018389868, -19.126609004531197 ], [ 22.605532046777554, -19.123739717937468 ], [ 22.602630916495503, -19.124910860006011 ], [ 22.599081212581151, -19.124610429987417 ], [ 22.597681247268703, -19.122419093592441 ], [ 22.596220110396978, -19.118220615367914 ], [ 22.593490565215962, -19.114640651293232 ], [ 22.589851498231688, -19.114990182846803 ], [ 22.585701082656289, -19.114770773713236 ], [ 22.58149132252489, -19.113741823803117 ], [ 22.579400993986184, -19.112430864825306 ], [ 22.57529038077686, -19.110281708627493 ], [ 22.573221071326845, -19.107431960656193 ], [ 22.570630725053768, -19.105540798979192 ], [ 22.567941225494998, -19.104060105550946 ], [ 22.567361585710056, -19.098182525566159 ], [ 22.568360864662985, -19.093930679118479 ], [ 22.566551022028296, -19.090762002096582 ], [ 22.564549993583309, -19.083653087088134 ], [ 22.563930124557512, -19.074634136208353 ], [ 22.56234122209597, -19.073815024073738 ], [ 22.560109720969994, -19.07031534531863 ], [ 22.560411052861074, -19.067346135025652 ], [ 22.561401085251973, -19.063745046809753 ], [ 22.558990133578991, -19.061055208627558 ], [ 22.556090861096354, -19.057064428968857 ], [ 22.553849694489685, -19.054787134372614 ], [ 22.555779819292756, -19.050065826905875 ], [ 22.559171123233853, -19.044395508462632 ], [ 22.561620143023568, -19.039366322179792 ], [ 22.5612310984075, -19.031876730650062 ], [ 22.561669875089944, -19.025448887427647 ], [ 22.564260212184156, -19.022108774808618 ], [ 22.566279993346196, -19.017548442161555 ], [ 22.567361416632032, -19.013378528126648 ], [ 22.566291363418074, -19.011268653712726 ], [ 22.564330614279932, -19.007059322178755 ], [ 22.559890313547168, -19.004507423421291 ], [ 22.557561240898977, -19.002541362089389 ], [ 22.560281305221881, -19.001448494059371 ], [ 22.559649891120664, -18.998869712654059 ], [ 22.557981055847911, -18.997071501315641 ], [ 22.555421181142062, -18.993820077598674 ], [ 22.554629788043108, -18.990349688893236 ], [ 22.555841046010077, -18.988519702029183 ], [ 22.558150643004289, -18.986860968016011 ], [ 22.562470850352415, -18.986189526561894 ], [ 22.564429934737195, -18.985020614870098 ], [ 22.567399481668133, -18.984089999501528 ], [ 22.571389935639683, -18.982938979008189 ], [ 22.575610920443662, -18.983409902703894 ] ] ] ] } }
]
}
