{
"type": "FeatureCollection",
"name": "Moremi_boundary",
"crs": { "type": "name", "properties": { "name": "urn:ogc:def:crs:EPSG::3857" } },
"features": [
{ "type": "Feature", "properties": { "AREA": 4890446336.0, "CHA_NO": "NG/28", "DISTRICT": "Ngamiland", "LANDUSE": "Game Reserve", "WMA_STAT": "Gazetted", "CHA_TYPE": "Moremi Game Reserve", "STATUS": "Gazetted", "LAND_TENUR": "Tribal", "MGMT_NAME": null, "CODE": 1, "ConsAreaJB": "no" }, "geometry": { "type": "MultiPolygon", "coordinates": [ [ [ [ 2513105.512010854668915, -2152982.797295171767473 ], [ 2513225.693579842802137, -2153164.141050226520747 ], [ 2513563.069712511729449, -2153264.248143834527582 ], [ 2513801.290884679183364, -2153693.960325086023659 ], [ 2513850.12143214372918, -2154138.906420369632542 ], [ 2513875.819616357330233, -2154376.691104137338698 ], [ 2514069.466444848105311, -2154645.103999618440866 ], [ 2514224.263932081870735, -2154968.809729164466262 ], [ 2514491.357171252835542, -2155351.427386744879186 ], [ 2514759.739509850274771, -2155639.873573600780219 ], [ 2515078.016997443046421, -2155749.394196073990315 ], [ 2515207.132643945049495, -2155959.027988897636533 ], [ 2515543.444199285004288, -2156096.62538843927905 ], [ 2515575.72123086405918, -2156466.457672910299152 ], [ 2515471.067086721770465, -2157185.626739583909512 ], [ 2515473.386451918166131, -2157630.808100718539208 ], [ 2515478.914505850058049, -2157904.926515261642635 ], [ 2515705.878736400045455, -2157851.933077095542103 ], [ 2515930.738977848552167, -2157893.383206350728869 ], [ 2516200.184821385890245, -2158162.965235963463783 ], [ 2516243.703762657009065, -2158408.92231310531497 ], [ 2516089.991318729706109, -2158567.885869350749999 ], [ 2515926.293805252760649, -2158822.5672109099105 ], [ 2515855.140984559897333, -2159189.75840184930712 ], [ 2516048.808690592180938, -2159477.115236882120371 ], [ 2516289.371372294612229, -2159726.52859142748639 ], [ 2516209.116817357484251, -2160057.472491260617971 ], [ 2515969.796032473444939, -2160356.542539812158793 ], [ 2515737.098380285315216, -2160799.377552091144025 ], [ 2515218.391310414299369, -2160838.319307821337134 ], [ 2514898.830611342564225, -2160862.88772938400507 ], [ 2514657.190091619733721, -2161237.515914613846689 ], [ 2514737.446227563079447, -2161589.468848357908428 ], [ 2514693.926732995547354, -2161920.732437336351722 ], [ 2514612.825325121637434, -2162336.333403371740133 ], [ 2515276.350431378930807, -2162658.947631429880857 ], [ 2515957.496885030530393, -2163047.695364324375987 ], [ 2516519.756517848931253, -2163284.295041261706501 ], [ 2516949.495715026278049, -2163451.419969265814871 ], [ 2517124.235659636557102, -2163776.476712018251419 ], [ 2517308.981020659208298, -2163978.111127052456141 ], [ 2517577.354381883982569, -2164304.184318146202713 ], [ 2517795.416418084874749, -2164231.385407586582005 ], [ 2517991.398593573831022, -2164338.347024637274444 ], [ 2518631.5483343526721, -2164973.205937686841935 ], [ 2518870.858403157908469, -2164674.034409388899803 ], [ 2519198.059516272973269, -2164887.1650794823654 ], [ 2519454.113152949605137, -2165336.11492272792384 ], [ 2519946.069647915661335, -2165798.899642475415021 ], [ 2520470.517538794782013, -2166014.630908562336117 ], [ 2520774.362457990646362, -2165876.709298269357532 ], [ 2520995.825553024187684, -2165538.758672914933413 ], [ 2521158.460398645140231, -2165361.935383297968656 ], [ 2521603.707454362418503, -2165178.251336357090622 ], [ 2522332.851100610569119, -2164904.910829476546496 ], [ 2522624.591957437805831, -2164928.45132673624903 ], [ 2522870.473501824308187, -2164836.640351597219706 ], [ 2523265.831606779713184, -2164795.482756255660206 ], [ 2523501.728950638789684, -2164798.884108209982514 ], [ 2523800.058280616533011, -2165001.60536133358255 ], [ 2524167.362990148365498, -2164979.115025879815221 ], [ 2524449.142837701365352, -2165039.287500461563468 ], [ 2524578.229472121223807, -2165212.230582623742521 ], [ 2524915.609236680436879, -2165388.083679139614105 ], [ 2525006.924514218233526, -2165588.160217290744185 ], [ 2525229.430400767363608, -2165751.961442534346133 ], [ 2525509.93156360136345, -2165879.196149628609419 ], [ 2525754.943239296786487, -2165931.08969791745767 ], [ 2525955.173315738327801, -2165715.371138947084546 ], [ 2526091.046142912004143, -2165480.002685977611691 ], [ 2526216.95910899201408, -2165235.776457209140062 ], [ 2526547.56288491981104, -2165136.03389352792874 ], [ 2526836.970514961052686, -2165311.494440347887576 ], [ 2527160.975118853151798, -2165694.318236832972616 ], [ 2527439.14131412981078, -2166001.465662605594844 ], [ 2527794.349955110345036, -2166178.475204149726778 ], [ 2528189.501404513139278, -2166164.101396154612303 ], [ 2528443.234311238396913, -2166214.695712334942073 ], [ 2529025.443403909448534, -2165663.407600298989564 ], [ 2529370.697244328446686, -2165280.746608277317137 ], [ 2529948.422877938020974, -2165003.870625239331275 ], [ 2530550.600421659182757, -2165013.321099025662988 ], [ 2531118.361484215129167, -2164813.004794785752892 ], [ 2531602.682035092730075, -2164563.623145929537714 ], [ 2532143.698174188379198, -2164893.349179530050606 ], [ 2532651.15018980903551, -2164986.437846455723047 ], [ 2533030.782629139255732, -2164791.902137492783368 ], [ 2533505.119350480381399, -2164524.565473319031298 ], [ 2533886.891682455316186, -2164178.302252899855375 ], [ 2534764.012762621510774, -2164039.439922752790153 ], [ 2535420.95784484827891, -2164227.738349359948188 ], [ 2536030.970978491939604, -2164321.988073848653585 ], [ 2536727.833021128550172, -2164312.475127225276083 ], [ 2537067.343678311444819, -2164270.113835987169296 ], [ 2537471.432709732558578, -2164360.758831983897835 ], [ 2537827.709226516075432, -2164508.032411653548479 ], [ 2538432.204749739728868, -2164307.755773168057203 ], [ 2538887.441190476994962, -2164124.009134756401181 ], [ 2539096.801385181490332, -2163919.141955915372819 ], [ 2539093.40100183011964, -2163482.303630905225873 ], [ 2539144.568008631933481, -2163207.685488109942526 ], [ 2539370.464272927027196, -2163192.457706328481436 ], [ 2539884.963283559307456, -2162782.58260256331414 ], [ 2540434.87876269267872, -2162449.332051204051822 ], [ 2540746.582502014469355, -2162415.23776533221826 ], [ 2540821.091189417522401, -2162430.645801245234907 ], [ 2541084.807334259152412, -2162485.922814012970775 ], [ 2541337.694475598167628, -2162603.408551941160113 ], [ 2541630.272866378072649, -2162520.993806743994355 ], [ 2541886.35530243627727, -2162345.702694263774902 ], [ 2541768.501216783188283, -2162078.21170744067058 ], [ 2541837.524862799793482, -2161822.620994647964835 ], [ 2542093.359228931833059, -2161713.339640427846462 ], [ 2542289.350624218583107, -2161792.100571809336543 ], [ 2542851.603092127479613, -2161998.392384837381542 ], [ 2543180.058812755625695, -2161434.171016720123589 ], [ 2543584.138680179137737, -2161487.145352738443762 ], [ 2543863.532280563842505, -2161633.246725246310234 ], [ 2544155.068222941830754, -2161702.769396418705583 ], [ 2544478.039871791377664, -2161499.143312806729227 ], [ 2544722.854622087907046, -2161444.585201217327267 ], [ 2545024.557985480409116, -2161440.167571573052555 ], [ 2545342.83940936345607, -2161557.755731338635087 ], [ 2545736.925758691970259, -2161639.100478736683726 ], [ 2545970.69159118225798, -2161822.673338268883526 ], [ 2546147.787127753719687, -2161947.587615806143731 ], [ 2546683.255045855883509, -2162031.159905519336462 ], [ 2547190.936853275168687, -2162074.613972512539476 ], [ 2547455.718009368982166, -2162021.744820405729115 ], [ 2547728.541916684247553, -2162025.351946609094739 ], [ 2548027.927242992911488, -2162191.223638460971415 ], [ 2548271.680838120169938, -2162268.900797467678785 ], [ 2548471.053911591880023, -2162130.159398488234729 ], [ 2548511.187633411493152, -2161921.735159080009907 ], [ 2548730.521083316765726, -2161726.425985225010663 ], [ 2548956.45112065738067, -2161681.542040586937219 ], [ 2549353.91890844097361, -2161610.854082776233554 ], [ 2549702.359492133371532, -2161606.125756761524826 ], [ 2549907.035272640641779, -2161751.141369910445064 ], [ 2550144.212710147723556, -2161593.19254659768194 ], [ 2550242.089606376364827, -2161338.818024980835617 ], [ 2550524.920827574562281, -2161284.424028606154025 ], [ 2550724.293039521668106, -2161222.319998357445002 ], [ 2550830.031145456247032, -2160994.877959572244436 ], [ 2551274.233043819665909, -2160877.066654150839895 ], [ 2551451.079375964123756, -2161041.850337904412299 ], [ 2551523.478893457446247, -2161240.855365111958236 ], [ 2551805.030954172834754, -2161330.429596181958914 ], [ 2551905.251349005848169, -2161577.784520750399679 ], [ 2552214.822847548406571, -2161667.261169041972607 ], [ 2552487.467827809974551, -2161727.494213867932558 ], [ 2552635.654402022715658, -2161871.071451806928962 ], [ 2552917.198135304730386, -2161969.948941142298281 ], [ 2553242.27729837410152, -2162286.821648985147476 ], [ 2553389.215371704194695, -2162611.925977567210793 ], [ 2553291.343424938153476, -2162903.86657573049888 ], [ 2552927.19679263420403, -2163363.214785828720778 ], [ 2552884.923954141326249, -2163751.867552854120731 ], [ 2553050.761548693291843, -2164009.76521905278787 ], [ 2553332.518966357689351, -2164051.150453483685851 ], [ 2553694.340535500086844, -2163781.297482802998275 ], [ 2554043.832290921360254, -2163690.782787478994578 ], [ 2554154.040292342659086, -2163171.306663402821869 ], [ 2553999.235497940797359, -2162770.819852521177381 ], [ 2554285.438223823904991, -2162442.219356718938798 ], [ 2554602.685189989861101, -2162674.383796305861324 ], [ 2555015.660235612653196, -2162755.661502350587398 ], [ 2555767.091862398199737, -2162898.048964679706842 ], [ 2556274.751906380988657, -2162999.298282221890986 ], [ 2556584.13213927578181, -2163050.114733990747482 ], [ 2556813.41581610776484, -2162844.910093889571726 ], [ 2557033.823414399754256, -2162544.624153976794332 ], [ 2557524.739847248420119, -2162408.037264185026288 ], [ 2557776.336496737785637, -2162601.168040359858423 ], [ 2557944.488875546958297, -2162726.196980602573603 ], [ 2558443.262633020989597, -2162603.473253057803959 ], [ 2558740.505198927596211, -2162706.089975790120661 ], [ 2561516.706897942349315, -2163655.327974840067327 ], [ 2569944.846692525781691, -2168399.933504675049335 ], [ 2569972.671301722060889, -2168418.984909079037607 ], [ 2569991.550684821791947, -2168453.166727859526873 ], [ 2569984.978784952312708, -2168508.250346083659679 ], [ 2569967.147112814243883, -2168559.014684546738863 ], [ 2569964.808894002344459, -2168582.434351335279644 ], [ 2569978.197718726005405, -2168622.711874444037676 ], [ 2570034.024051666725427, -2168665.076268120668828 ], [ 2570079.463696638587862, -2168694.338657587300986 ], [ 2570101.781720591243356, -2168709.899615686852485 ], [ 2570111.953746210318059, -2168726.195804696995765 ], [ 2570100.715954699553549, -2168736.787802729289979 ], [ 2570092.85837483452633, -2168746.332453025039285 ], [ 2570104.090350968297571, -2168768.758530274964869 ], [ 2570115.14879393344745, -2168773.609466690570116 ], [ 2570123.003251258283854, -2168802.941010736394674 ], [ 2570125.12890694802627, -2168820.526375026907772 ], [ 2570135.303792064078152, -2168829.899387197569013 ], [ 2570156.350995074491948, -2168841.725941881537437 ], [ 2570156.332887793891132, -2168877.140551090240479 ], [ 2570170.757782285101712, -2168889.997557387221605 ], [ 2570190.957250903360546, -2168899.423170085996389 ], [ 2570200.91426210757345, -2168925.304258643183857 ], [ 2570176.516999381128699, -2168940.620405783876777 ], [ 2570154.197202411014587, -2168957.278798480052501 ], [ 2570158.660681498236954, -2168996.178884023800492 ], [ 2570166.316854696720839, -2169025.509597092401236 ], [ 2570160.779157176148146, -2169059.830512067303061 ], [ 2570139.788065549451858, -2169088.212340649217367 ], [ 2570153.156838618218899, -2169119.703509866725653 ], [ 2570157.60945544205606, -2169147.952567382715642 ], [ 2570188.596309766173363, -2169176.340771365445107 ], [ 2570233.207404408138245, -2169186.959621963091195 ], [ 2570275.45721054635942, -2169199.96246266644448 ], [ 2570284.364005772862583, -2169198.67769590113312 ], [ 2570297.740047622006387, -2169190.493122900370508 ], [ 2570343.382427426520735, -2169200.051890323869884 ], [ 2570379.081335730850697, -2169193.847994949668646 ], [ 2570408.993163524195552, -2169199.862735163420439 ], [ 2570404.555879584513605, -2169238.982955077663064 ], [ 2570415.805039121769369, -2169264.604868842754513 ], [ 2570426.855764615349472, -2169296.616497846785933 ], [ 2570407.929760651662946, -2169322.346893656998873 ], [ 2570419.19306878419593, -2169383.65101595595479 ], [ 2570448.060419197194278, -2169418.951476940419525 ], [ 2570473.557269723154604, -2169434.262975254096091 ], [ 2570481.410178542137146, -2169489.691244603134692 ], [ 2570508.158994960598648, -2169538.028830328956246 ], [ 2570538.314439371693879, -2169567.477899509482086 ], [ 2570554.889485444873571, -2169606.176071858033538 ], [ 2570535.971536777447909, -2169623.91841886844486 ], [ 2570497.120560234412551, -2169638.094744857400656 ], [ 2570495.853040828369558, -2169704.127465838566422 ], [ 2570501.582933898083866, -2169747.828714782837778 ], [ 2570495.848344151396304, -2169781.883627925533801 ], [ 2570458.050046198070049, -2169784.348936585243791 ], [ 2570441.282500355038792, -2169802.102532746270299 ], [ 2570469.309589490760118, -2169833.671334160957485 ], [ 2570516.004295388236642, -2169870.397183579858392 ], [ 2570506.036148927174509, -2169923.336915864143521 ], [ 2570482.458734953776002, -2169997.50888618407771 ], [ 2570494.790542455390096, -2170018.610547042451799 ], [ 2570521.54223196208477, -2170117.811273572500795 ], [ 2570543.826635295990855, -2170153.078586535993963 ], [ 2570577.154592409729958, -2170157.779834477696568 ], [ 2570612.829386640805751, -2170169.416869360953569 ], [ 2570655.101312113460153, -2170210.646963177248836 ], [ 2570699.697634153999388, -2170243.900416657794267 ], [ 2570727.487318187952042, -2170276.799711757339537 ], [ 2570735.358484537340701, -2170309.595288369338959 ], [ 2570714.123914225026965, -2170327.326279981061816 ], [ 2570711.782012435607612, -2170345.155940013937652 ], [ 2570778.682184249162674, -2170377.993222062010318 ], [ 2570785.256041761022061, -2170399.331233501434326 ], [ 2570783.136636690236628, -2170438.199658920522779 ], [ 2570803.076325919479132, -2170453.482674313243479 ], [ 2570825.396018290426582, -2170437.088566425256431 ], [ 2570854.47057673195377, -2170458.277720413636416 ], [ 2570864.434480129741132, -2170521.708676239475608 ], [ 2570879.944414116442204, -2170574.783132802229375 ], [ 2570900.116724779363722, -2170622.023400743026286 ], [ 2570921.14751339238137, -2170650.360753158573061 ], [ 2570954.479647141415626, -2170660.920096863992512 ], [ 2570973.59438889939338, -2170695.106224345974624 ], [ 2570981.221786496695131, -2170756.129040192812681 ], [ 2571010.322468593716621, -2170791.698790883645415 ], [ 2571061.489652710501105, -2170815.133463380392641 ], [ 2571110.308871949091554, -2170799.675379801541567 ], [ 2571128.161963952705264, -2170783.25748843094334 ], [ 2571153.854347081854939, -2170773.804076798725873 ], [ 2571186.135571899823844, -2170802.199910955969244 ], [ 2571213.946822108700871, -2170850.545315356459469 ], [ 2571270.646289527416229, -2170885.725649185944349 ], [ 2571305.240831693634391, -2170934.106325147673488 ], [ 2571340.925102808047086, -2170963.58500981843099 ], [ 2571386.55823737801984, -2170969.414141002576798 ], [ 2571438.781458030454814, -2170948.380477029830217 ], [ 2571476.576285284478217, -2170921.146899292245507 ], [ 2571527.773595390375704, -2170925.939223835710436 ], [ 2571567.89582314575091, -2170948.250300697050989 ], [ 2571595.719612492248416, -2170981.416141119319946 ], [ 2571585.726693809963763, -2171020.24511284660548 ], [ 2571584.65045342920348, -2171049.533263607416302 ], [ 2571609.081407036166638, -2171060.311894727405161 ], [ 2571630.31919590337202, -2171048.437976212240756 ], [ 2571648.142904285341501, -2171050.660681998357177 ], [ 2571651.33384948130697, -2171080.237181285396218 ], [ 2571631.375062802806497, -2171107.297323638107628 ], [ 2571635.827014834154397, -2171129.690199379343539 ], [ 2571664.698230705223978, -2171152.209360335487872 ], [ 2571678.085012622177601, -2171187.431345741730183 ], [ 2571668.121897506993264, -2171220.402019937988371 ], [ 2571634.780246542301029, -2171230.881941056810319 ], [ 2571627.966078245546669, -2171262.803859529551119 ], [ 2571639.227438272442669, -2171286.563612177036703 ], [ 2571641.355345650110394, -2171316.934032007586211 ], [ 2571598.054538383614272, -2171359.585909788031131 ], [ 2571568.952899562660605, -2171407.903893642127514 ], [ 2571561.321296534501016, -2171444.349076894577593 ], [ 2571543.463712956290692, -2171481.007776190526783 ], [ 2571534.556884432211518, -2171520.908542475663126 ], [ 2571551.3400788474828, -2171545.496232536621392 ], [ 2571567.898079831618816, -2171562.359681854024529 ], [ 2571564.694927452597767, -2171599.893316975794733 ], [ 2571577.85919711086899, -2171626.859237869270146 ], [ 2571609.083584388252348, -2171655.250211658421904 ], [ 2571629.238531705923378, -2171687.045972812455148 ], [ 2571619.067485233303159, -2171728.272308765444905 ], [ 2571598.044890115968883, -2171775.567695545963943 ], [ 2571606.94876600522548, -2171820.354980655480176 ], [ 2571617.986682844348252, -2171881.398810054175556 ], [ 2571606.963673780672252, -2171927.414852012414485 ], [ 2571567.889516904018819, -2171939.19687607139349 ], [ 2571541.143446149304509, -2171921.481336980126798 ], [ 2571514.597944655455649, -2171935.725027127191424 ], [ 2571486.789504420943558, -2171951.027392405550927 ], [ 2571477.872332949191332, -2171986.401643836405128 ], [ 2571498.888384978752583, -2172030.985882941167802 ], [ 2571506.727119991090149, -2172064.050156513229012 ], [ 2571501.212155157700181, -2172113.557264580857009 ], [ 2571517.780660267919302, -2172134.948700378648937 ], [ 2571550.053383252117783, -2172139.64341240702197 ], [ 2571601.43030044157058, -2172161.747825406957418 ], [ 2571642.645557447336614, -2172184.332149803172797 ], [ 2571677.02188764186576, -2172198.358741587493569 ], [ 2571702.725353043992072, -2172206.481350299436599 ], [ 2571703.784163628239185, -2172245.369931979104877 ], [ 2571707.172283521853387, -2172275.215624022297561 ], [ 2571708.246947954408824, -2172304.516835621092469 ], [ 2571723.745477760676295, -2172341.083272017072886 ], [ 2571743.926224366296083, -2172355.036525886040181 ], [ 2571780.65036642877385, -2172343.508064915891737 ], [ 2571806.110207052435726, -2172315.143021065741777 ], [ 2571842.870278896763921, -2172303.081943699624389 ], [ 2571889.570464291144162, -2172282.017244316637516 ], [ 2571927.558608939405531, -2172269.163498505018651 ], [ 2571959.841556400991976, -2172291.434844173956662 ], [ 2571959.845270606689155, -2172336.17725065164268 ], [ 2571978.761563820764422, -2172364.505269038956612 ], [ 2571999.766161861363798, -2172385.653240335173905 ], [ 2572042.23158521624282, -2172390.399690966587514 ], [ 2572082.143286206759512, -2172409.248189428355545 ], [ 2572087.893079386558384, -2172443.367385915480554 ], [ 2572134.583173244725913, -2172463.316031336318702 ], [ 2572188.095466771163046, -2172482.234446780290455 ], [ 2572223.561076899990439, -2172516.506700437515974 ], [ 2572252.661151806823909, -2172553.143225740175694 ], [ 2572281.529861402697861, -2172563.678492853883654 ], [ 2572326.125797076150775, -2172566.038426779676229 ], [ 2572352.660739256069064, -2172580.023819182999432 ], [ 2572354.992335721850395, -2172609.598123696167022 ], [ 2572346.076569402124733, -2172631.923930178396404 ], [ 2572351.587040056474507, -2172654.590140613727272 ], [ 2572376.209502985700965, -2172680.284216672647744 ], [ 2572381.747840917669237, -2172704.015938225202262 ], [ 2572507.447324723470956, -2172648.732331957668066 ], [ 2579561.817208032123744, -2169296.714454194065183 ], [ 2587371.030924909748137, -2168487.115774666890502 ], [ 2591693.607295865193009, -2167695.442120827268809 ], [ 2616530.456819718703628, -2170093.000776379369199 ], [ 2619706.44861710164696, -2170622.972383892629296 ], [ 2639714.111945572774857, -2174195.48985887132585 ], [ 2639779.949479119386524, -2174252.335988816339523 ], [ 2639822.186910878866911, -2174289.964269516523927 ], [ 2639827.708142210263759, -2174293.702654107473791 ], [ 2639900.13474447466433, -2174328.983269662130624 ], [ 2639971.266595600638539, -2174346.414504803251475 ], [ 2639984.612293066456914, -2174280.641977119259536 ], [ 2639978.054074299056083, -2174181.540587788447738 ], [ 2640011.392596413381398, -2174114.469667472876608 ], [ 2640094.830449408385903, -2174094.361944230273366 ], [ 2640143.888368917163461, -2174089.647488248068839 ], [ 2640195.047570376191288, -2174054.303638461511582 ], [ 2640243.023448528721929, -2174063.704645002260804 ], [ 2640304.185351337771863, -2174106.157047722954303 ], [ 2640382.099611056037247, -2174124.929398539476097 ], [ 2640425.618734622839838, -2174127.397177191451192 ], [ 2640482.31198257394135, -2174108.310098521411419 ], [ 2640537.967219926416874, -2174096.679495993535966 ], [ 2640572.565698077436537, -2174130.830748866312206 ], [ 2640542.424232185352594, -2174207.497333964332938 ], [ 2640512.472812158055604, -2174268.714839954394847 ], [ 2640587.011159258428961, -2174308.791031447704881 ], [ 2640685.960401535499841, -2174316.941174573730677 ], [ 2640785.097602367866784, -2174289.929855866823345 ], [ 2640902.108303313143551, -2174199.283345697913319 ], [ 2640968.752648416440934, -2174145.049527946859598 ], [ 2641066.64759743027389, -2174107.380155807361007 ], [ 2641132.461840067524463, -2174033.166812647599727 ], [ 2641172.597648180555552, -2173955.450248893350363 ], [ 2641213.799910276662558, -2173915.293590348213911 ], [ 2641312.742222355213016, -2173948.212731178849936 ], [ 2641398.506768620572984, -2174005.883149383123964 ], [ 2641475.394612135831267, -2174089.643744900356978 ], [ 2641554.368953790515661, -2174194.451219708193094 ], [ 2641629.962969490326941, -2174259.563883541617543 ], [ 2641714.687511211726815, -2174306.310933580156416 ], [ 2641817.021765884477645, -2174308.866734129842371 ], [ 2641903.855873946566135, -2174318.323797753080726 ], [ 2641986.25773113174364, -2174347.751806781161577 ], [ 2642054.185560418758541, -2174384.08312567602843 ], [ 2642103.249937030486763, -2174440.896296002902091 ], [ 2642137.639290017075837, -2174484.368218164891005 ], [ 2642215.557675785850734, -2174458.64869754947722 ], [ 2642279.048219610471278, -2174408.933188577648252 ], [ 2642324.692237744573504, -2174385.561548728030175 ], [ 2642397.108558095060289, -2174408.846115353517234 ], [ 2642460.582079270388931, -2174480.863745038863271 ], [ 2642573.973730180878192, -2174526.851675372105092 ], [ 2642649.771713637746871, -2174546.944024264346808 ], [ 2642716.448464747983962, -2174624.826480680610985 ], [ 2642766.542201983742416, -2174681.107471764087677 ], [ 2642833.444586484227329, -2174718.76698872866109 ], [ 2642989.294275464955717, -2174726.191304806154221 ], [ 2643067.213762701489031, -2174744.953554551117122 ], [ 2643158.493806671816856, -2174726.175492853391916 ], [ 2643256.37250106362626, -2174698.882677854970098 ], [ 2643341.11035658698529, -2174717.653703709132969 ], [ 2643456.815005565993488, -2174699.975686288904399 ], [ 2643560.455119479447603, -2174624.74159612134099 ], [ 2643688.275506062898785, -2174628.390063261147588 ], [ 2643808.66893943445757, -2174710.87539399554953 ], [ 2643894.212490864563733, -2174791.978260535746813 ], [ 2643974.472866662312299, -2174817.932448731735349 ], [ 2644071.314347916282713, -2174798.092548930086195 ], [ 2644062.38736296351999, -2174697.654373203404248 ], [ 2643974.481775146443397, -2174624.807034281548113 ], [ 2643952.192797774914652, -2174541.132309209089726 ], [ 2644026.719006668310612, -2174478.640501048415899 ], [ 2644123.54612155072391, -2174491.298520822543651 ], [ 2644221.645286240614951, -2174493.835654159542173 ], [ 2644298.488906063139439, -2174406.57327378122136 ], [ 2644371.952469096519053, -2174321.703569029457867 ], [ 2644450.955006175674498, -2174323.146851294208318 ], [ 2644532.256233924999833, -2174409.034174872562289 ], [ 2644660.084416516590863, -2174430.256985653657466 ], [ 2644783.648406711872667, -2174399.529863413888961 ], [ 2644845.035139334388077, -2174455.021424946375191 ], [ 2644907.247217975091189, -2174488.138472897466272 ], [ 2644980.692870204802603, -2174463.200625852681696 ], [ 2645001.946291666012257, -2174290.085914697498083 ], [ 2645056.501035427674651, -2174088.516839135903865 ], [ 2645146.754876676946878, -2173993.013850066345185 ], [ 2645268.000063968356699, -2173961.215531802736223 ], [ 2645384.979665918275714, -2173950.720300839748234 ], [ 2645520.654892986174673, -2173869.129066719207913 ], [ 2645644.227925194427371, -2173828.008850492537022 ], [ 2645704.318709095474333, -2173738.323844044469297 ], [ 2645703.241432553622872, -2173627.51398822106421 ], [ 2645686.487079599872231, -2173533.464667879510671 ], [ 2645725.566959062125534, -2173438.958153748419136 ], [ 2645774.589462221134454, -2173383.886813048273325 ], [ 2645874.616530112922192, -2173325.953792017418891 ], [ 2645943.820808054413646, -2173275.437403116840869 ], [ 2646061.666564120911062, -2173282.519346034619957 ], [ 2646142.975484855938703, -2173263.448920030612499 ], [ 2646206.48686769977212, -2173187.087356927804649 ], [ 2646256.592538297642022, -2173137.344219360034913 ], [ 2646355.541067757178098, -2173143.600321022327989 ], [ 2646427.924088858533651, -2173090.423279405105859 ], [ 2646456.813116308767349, -2173016.147074524313211 ], [ 2646517.124335441738367, -2172981.865672888699919 ], [ 2646591.638693246990442, -2173020.850633012596518 ], [ 2646681.878187908325344, -2173056.393125313799828 ], [ 2646672.950091157108545, -2173128.032004042062908 ], [ 2646664.050198805518448, -2173177.563299918081611 ], [ 2646727.523463250137866, -2173207.211270833853632 ], [ 2646823.072823940776289, -2173154.062358137685806 ], [ 2646878.927081622183323, -2173189.293641387019306 ], [ 2646980.196062121074647, -2173192.885966770816594 ], [ 2647049.219269894063473, -2173125.851495658513159 ], [ 2647153.867614143993706, -2173020.773012340068817 ], [ 2647235.002875958569348, -2172900.482515825890005 ], [ 2647307.391083097551018, -2172840.643915915861726 ], [ 2647407.607576224487275, -2172864.209267524536699 ], [ 2647475.569961120840162, -2172930.350674808956683 ], [ 2647472.150018742773682, -2173019.575991202611476 ], [ 2647466.65452841995284, -2173101.074672481976449 ], [ 2647535.648518024012446, -2173163.488989951089025 ], [ 2647663.693384063895792, -2173192.948051884770393 ], [ 2647843.955735464580357, -2173256.564964843448251 ], [ 2647852.858614418655634, -2173256.57590999500826 ], [ 2647953.072184343356639, -2173284.933470101095736 ], [ 2648095.546858693473041, -2173288.304104406852275 ], [ 2648201.28960996074602, -2173260.198528707027435 ], [ 2648343.766419319435954, -2173234.001356803812087 ], [ 2648456.312229600269347, -2173217.62252905452624 ], [ 2648574.15595240239054, -2173227.086376304272562 ], [ 2648683.278087898157537, -2173138.785002341028303 ], [ 2648752.288673750124872, -2173020.8701495192945 ], [ 2648811.309306186623871, -2172954.883497745264322 ], [ 2648938.300844706129283, -2172923.070481758564711 ], [ 2649060.801744199823588, -2172881.929014310706407 ], [ 2649171.005263002589345, -2172799.48740497417748 ], [ 2649214.298460185993463, -2172680.211228473577648 ], [ 2649200.940341528039426, -2172554.211059979628772 ], [ 2649158.680993215646595, -2172494.232897591311485 ], [ 2649115.170169002376497, -2172429.192681673914194 ], [ 2649156.33552784146741, -2172346.672431730199605 ], [ 2649255.508838983718306, -2172298.578641557600349 ], [ 2649391.392363418824971, -2172271.568179982248694 ], [ 2649507.121341329067945, -2172244.267458869609982 ], [ 2649591.627606930211186, -2172141.820714964065701 ], [ 2649671.861482113599777, -2172041.499963089823723 ], [ 2649763.192233757115901, -2171901.506838893983513 ], [ 2649862.129472465254366, -2171735.155231812037528 ], [ 2649984.632400065660477, -2171654.059310047421604 ], [ 2650047.066385735757649, -2171576.091922113206238 ], [ 2650082.74755020160228, -2171450.154117309022695 ], [ 2650094.826427168678492, -2171330.05008025187999 ], [ 2650078.2666309857741, -2171252.261870299465954 ], [ 2650046.002156242728233, -2171161.406154807191342 ], [ 2650035.794993677642196, -2171084.957325638271868 ], [ 2650101.636782476212829, -2171005.930516862310469 ], [ 2650134.981085986364633, -2170927.13394222734496 ], [ 2650157.272874868940562, -2170848.058882778976113 ], [ 2650128.367529180832207, -2170742.294615151360631 ], [ 2650099.281777491793036, -2170650.379521625116467 ], [ 2650081.444587683305144, -2170531.045957540161908 ], [ 2650091.428289161995053, -2170389.905639559961855 ], [ 2650098.232189543079585, -2170281.520232137292624 ], [ 2650054.689958585891873, -2170216.489517526701093 ], [ 2650001.417533634696156, -2170153.045779561623931 ], [ 2649926.88318781228736, -2170105.823762397747487 ], [ 2649890.165925155859441, -2170034.142844120971859 ], [ 2649883.368403777014464, -2169957.435866549611092 ], [ 2649905.64166516950354, -2169894.876623363234103 ], [ 2650010.336616565007716, -2169867.829922444652766 ], [ 2650088.254076091572642, -2169877.237967423163354 ], [ 2650170.635139593854547, -2169859.752891731448472 ], [ 2650237.298006866127253, -2169782.062912479974329 ], [ 2650267.450913198757917, -2169684.092850167769939 ], [ 2650296.34965339442715, -2169582.926031389273703 ], [ 2650343.033959986642003, -2169527.318547852803022 ], [ 2650425.424657861702144, -2169529.805879171937704 ], [ 2650513.546497678384185, -2169587.692069671116769 ], [ 2650566.824384301435202, -2169676.964817914180458 ], [ 2650652.609298727940768, -2169724.195610255468637 ], [ 2650762.819528278894722, -2169798.350312685128301 ], [ 2650863.037603076081723, -2169903.386548003647476 ], [ 2650942.032893469557166, -2169926.640846890863031 ], [ 2651030.978319628629833, -2169865.483257243409753 ], [ 2651085.565162502229214, -2169751.292315587867051 ], [ 2651096.800128209404647, -2169482.595293750520796 ], [ 2651076.624950013123453, -2169410.670218374580145 ], [ 2651071.112756586167961, -2169271.651272193528712 ], [ 2651126.750437905546278, -2169131.63314062403515 ], [ 2651191.310471854172647, -2169002.011116778478026 ], [ 2651225.902749675326049, -2168829.749784072395414 ], [ 2651260.505854590795934, -2168709.95090151950717 ], [ 2651336.100559576414526, -2168626.146131581161171 ], [ 2651467.521938932593912, -2168567.165364971384406 ], [ 2651582.18122123926878, -2168494.052806708496064 ], [ 2651669.047987193334848, -2168418.78079709270969 ], [ 2651746.954709134995937, -2168336.309525572229177 ], [ 2651823.605801829602569, -2168251.440245903562754 ], [ 2651901.543986295815557, -2168201.98938317084685 ], [ 2651983.908330594189465, -2168192.753025831654668 ], [ 2652056.314471147954464, -2168215.195123177487403 ], [ 2652105.353119878098369, -2168278.622618082445115 ], [ 2652148.667887546587735, -2168375.331441172864288 ], [ 2652165.451231034006923, -2168467.220612288918346 ], [ 2652172.036535550840199, -2168533.00259915413335 ], [ 2652165.468804351519793, -2168582.527428129687905 ], [ 2652172.03855770919472, -2168630.73411044664681 ], [ 2652222.156998480670154, -2168674.457610208541155 ], [ 2652260.162648013327271, -2168687.54447824601084 ], [ 2652315.771009733434767, -2168667.361412762664258 ], [ 2652339.151597179472446, -2168613.325992370955646 ], [ 2652373.529756178148091, -2168580.339191607199609 ], [ 2652443.82073674025014, -2168568.425761902239174 ], [ 2652496.056793228257447, -2168545.043341903015971 ], [ 2652513.90089508285746, -2168501.388208362739533 ], [ 2652528.337639094796032, -2168389.291591025423259 ], [ 2652562.929764443542808, -2168305.709054397884756 ], [ 2652618.56420142762363, -2168257.298254524357617 ], [ 2652675.244638892821968, -2168221.93679141625762 ], [ 2652720.892577628139406, -2168166.858800294343382 ], [ 2652782.256222766358405, -2168112.328819345682859 ], [ 2652886.729085959028453, -2168095.920376977417618 ], [ 2652962.541228798218071, -2168086.673445125576109 ], [ 2653007.129518087953329, -2168031.327904000412673 ], [ 2653029.216248183511198, -2167908.589350529946387 ], [ 2653053.837089436128736, -2167834.584678334183991 ], [ 2653120.500326116103679, -2167772.070979409385473 ], [ 2653218.607460509054363, -2167696.805466830264777 ], [ 2653300.970462088938802, -2167615.400208835490048 ], [ 2653362.124377300497144, -2167533.974842595402151 ], [ 2653441.115936173591763, -2167518.871162359137088 ], [ 2653520.337916118558496, -2167504.566184891853482 ], [ 2653590.38248452777043, -2167468.150762897916138 ], [ 2653647.085043178405613, -2167404.29571921704337 ], [ 2653702.696087176445872, -2167339.640723977703601 ], [ 2653746.22307395376265, -2167282.963130208197981 ], [ 2653750.707444885279983, -2167191.100470599718392 ], [ 2653702.698790473397821, -2167084.011809968389571 ], [ 2653700.599286397453398, -2166992.143947300966829 ], [ 2653757.272326577920467, -2166886.218439331743866 ], [ 2653756.214092837646604, -2166813.257999955210835 ], [ 2653713.968280241824687, -2166736.531839263159782 ], [ 2653609.28419051039964, -2166631.789250854402781 ], [ 2653546.848284095991403, -2166529.21639171987772 ], [ 2653562.577474285382777, -2166406.746802257373929 ], [ 2653632.650885791052133, -2166298.440793592482805 ], [ 2653743.914305796846747, -2166225.32048332830891 ], [ 2653859.843689674977213, -2166150.074046770110726 ], [ 2653972.153603094164282, -2166088.66953063942492 ], [ 2654102.54097465518862, -2166085.060436591040343 ], [ 2654221.648067873436958, -2166117.119877932593226 ], [ 2654335.037335216999054, -2166180.592879086732864 ], [ 2654440.76914724893868, -2166261.898596017155796 ], [ 2654517.637788007035851, -2166359.68723521521315 ], [ 2654554.352633723057806, -2166445.724625780712813 ], [ 2654599.995585232507437, -2166537.628275213297457 ], [ 2654644.604864437133074, -2166601.306437109597027 ], [ 2654729.099209548905492, -2166644.782843991182745 ], [ 2654834.857004314195365, -2166662.182739958167076 ], [ 2654981.764204638078809, -2166611.718065708409995 ], [ 2655105.36441350216046, -2166617.682043496053666 ], [ 2655256.738514788914472, -2166644.704440588597208 ], [ 2655374.788149149157107, -2166721.490695388056338 ], [ 2655492.852507042232901, -2166821.442587851546705 ], [ 2655600.938293266575783, -2166947.480951930396259 ], [ 2655705.384431631769985, -2167115.854986246209592 ], [ 2655751.023712733294815, -2167220.806799766141921 ], [ 2655816.859400251414627, -2167350.273457759059966 ], [ 2655874.619818044360727, -2167483.462200426496565 ], [ 2655912.605790680740029, -2167603.58756326790899 ], [ 2655960.386602156795561, -2167722.656395737547427 ], [ 2655998.197492344304919, -2167814.556307575199753 ], [ 2656011.580137680284679, -2167919.485109450761229 ], [ 2656038.331583787221462, -2168064.102588213048875 ], [ 2656055.094518250785768, -2168204.186177399475127 ], [ 2656066.142584498040378, -2168332.81532375048846 ], [ 2656071.649520895443857, -2168481.146839486435056 ], [ 2656068.473725617397577, -2168604.972993527073413 ], [ 2656086.091703256592155, -2168710.974420216865838 ], [ 2656164.032314742449671, -2168814.628185878507793 ], [ 2656293.322224337607622, -2168882.904712073504925 ], [ 2656406.705519689247012, -2168983.124553017318249 ], [ 2656501.421652593649924, -2169091.318771157413721 ], [ 2656634.96945486497134, -2169177.439945455640554 ], [ 2656748.539725441951305, -2169210.549811752513051 ], [ 2656893.138406292069703, -2169212.791250247973949 ], [ 2657041.34206007514149, -2169217.431036946363747 ], [ 2657174.902822154574096, -2169245.760046354494989 ], [ 2657296.147160280961543, -2169329.471328707877547 ], [ 2657436.497116807848215, -2169396.685036913491786 ], [ 2657562.203032795805484, -2169444.97910264832899 ], [ 2657682.587133030407131, -2169486.344635011162609 ], [ 2657797.25218224292621, -2169520.515005347318947 ], [ 2657850.532064712140709, -2169513.096429637633264 ], [ 2657904.044890765566379, -2169503.813659200444818 ], [ 2657948.648578554857522, -2169553.113038317766041 ], [ 2657955.212093723937869, -2169630.880944333504885 ], [ 2657977.498355687130243, -2169748.873632083181292 ], [ 2658008.722791950218379, -2169862.079744268674403 ], [ 2658068.814391711726785, -2169958.528759048320353 ], [ 2658167.972891821525991, -2170026.775543986354023 ], [ 2658296.007395194843411, -2170065.746985684148967 ], [ 2658412.777914557605982, -2170026.944824124220759 ], [ 2658508.556173477787524, -2169907.966228746809065 ], [ 2658575.20845672627911, -2169797.223979827016592 ], [ 2658644.44745326647535, -2169726.43103671213612 ], [ 2658620.861684250179678, -2183042.883104684296995 ], [ 2658637.627470676787198, -2193793.258670066017658 ], [ 2658637.638951649423689, -2194121.228011767845601 ], [ 2636536.007261250633746, -2194148.365641789510846 ], [ 2634069.175467774271965, -2200018.931728658266366 ], [ 2633862.163929605390877, -2200702.14101273752749 ], [ 2633828.604901031125337, -2200813.301394053269178 ], [ 2633581.446667495183647, -2201458.84516965970397 ], [ 2633388.88712775381282, -2201974.343133127316833 ], [ 2633152.990788575261831, -2202492.432658340316266 ], [ 2633028.350923660211265, -2202796.816851255949587 ], [ 2632900.301935684867203, -2203146.280932283960283 ], [ 2632744.464315199293196, -2203498.894916684832424 ], [ 2632595.193087048828602, -2203847.258926193695515 ], [ 2632388.189295535907149, -2204252.066025735344738 ], [ 2632173.292238103691489, -2204638.187934226356447 ], [ 2632022.975236180704087, -2204969.757686161901802 ], [ 2631833.798918833956122, -2205334.333021716680378 ], [ 2631746.948168613947928, -2205540.91714436467737 ], [ 2628009.987461731769145, -2215369.804205988068134 ], [ 2619241.27190624224022, -2216873.160161484032869 ], [ 2618598.760259163100272, -2216060.66919992538169 ], [ 2618224.832156834192574, -2215686.17869087588042 ], [ 2617888.516226726584136, -2215245.597308229189366 ], [ 2617742.858826650306582, -2214721.216349157970399 ], [ 2617503.341624821536243, -2214082.610428398475051 ], [ 2617000.356879014056176, -2213430.722076284233481 ], [ 2616175.45664746593684, -2212757.6218202682212 ], [ 2614964.13083485327661, -2212147.14610062353313 ], [ 2613968.955570940393955, -2211614.664630857296288 ], [ 2613510.307943986263126, -2211143.57365112984553 ], [ 2612884.794626228045672, -2210520.12493613967672 ], [ 2612351.428798674140126, -2209962.876307545695454 ], [ 2612084.319342345930636, -2209381.114646389149129 ], [ 2611824.858120165765285, -2208903.990909643471241 ], [ 2611523.345942382700741, -2208795.238673478830606 ], [ 2611102.509212971664965, -2208402.194160277489573 ], [ 2610642.824374336749315, -2208179.258882485795766 ], [ 2610134.085886984597892, -2208069.290093219839036 ], [ 2609579.700949736870825, -2207835.621016422752291 ], [ 2609340.207043356262147, -2207186.473230389412493 ], [ 2609392.635546845383942, -2206730.667342343367636 ], [ 2609160.978500376921147, -2206339.041408625431359 ], [ 2608719.13377203932032, -2206106.2717703320086 ], [ 2608505.309524299111217, -2205772.336921245791018 ], [ 2607836.276581395417452, -2205689.53654476813972 ], [ 2607376.594872668851167, -2205456.951382372062653 ], [ 2606776.549310279544443, -2205003.784570004791021 ], [ 2606159.7178436210379, -2204484.6588762588799 ], [ 2605446.310763289686292, -2204144.72794405836612 ], [ 2605315.94410680513829, -2203951.134618423413485 ], [ 2594790.644633591175079, -2204738.593959914986044 ], [ 2591859.43828562926501, -2211157.628067374229431 ], [ 2591743.719226175453514, -2211411.728637695778161 ], [ 2591487.653869928792119, -2211923.035791543312371 ], [ 2591371.957618134561926, -2212161.398295558989048 ], [ 2591313.990131203550845, -2212265.234446628484875 ], [ 2591162.592570596374571, -2212317.168272593058646 ], [ 2591053.650218727998435, -2212311.369005974382162 ], [ 2590934.540882576722652, -2212286.577665532007813 ], [ 2590825.424814969766885, -2212322.142072314862162 ], [ 2590547.041644944343716, -2212659.624454415868968 ], [ 2590632.843295376282185, -2212735.251040012110025 ], [ 2590777.40849128505215, -2212858.099231974687427 ], [ 2590884.448530122637749, -2212970.112234092783183 ], [ 2590972.35651353513822, -2213066.030894793570042 ], [ 2591011.188520482741296, -2213255.952886794228107 ], [ 2590952.176484013907611, -2213496.704513385891914 ], [ 2590918.833931028842926, -2213665.773222200106829 ], [ 2590903.323012548498809, -2213845.061271943151951 ], [ 2590892.077025840058923, -2214035.311882392968982 ], [ 2590906.748681801836938, -2214213.664068214129657 ], [ 2590923.305907185189426, -2214495.852085002232343 ], [ 2590961.098013391252607, -2214807.494449674617499 ], [ 2591046.863610793370754, -2215036.602303481660783 ], [ 2591157.083976285066456, -2215310.925301980692893 ], [ 2591249.427873174659908, -2215530.457118137273937 ], [ 2591342.013179738074541, -2215653.099042870104313 ], [ 2591447.736614943947643, -2215814.767856474034488 ], [ 2591530.134354010690004, -2215947.243903857655823 ], [ 2591612.527819849550724, -2216120.827602188568562 ], [ 2591692.564667322207242, -2216279.18743844749406 ], [ 2591763.892941781319678, -2216450.324475788511336 ], [ 2591861.776056269649416, -2216648.80183496279642 ], [ 2591921.857279312331229, -2216757.43079822557047 ], [ 2591985.361732601653785, -2216888.497486395295709 ], [ 2592056.482533128000796, -2217046.824773818720132 ], [ 2592128.90891331108287, -2217234.522479339502752 ], [ 2592196.826878934632987, -2217413.927578555420041 ], [ 2592242.480420558247715, -2217579.359396006911993 ], [ 2592262.43910972122103, -2217734.007023352198303 ], [ 2592272.646096460986882, -2217880.606394816190004 ], [ 2592272.652283178642392, -2218023.426835441030562 ], [ 2592265.851695267017931, -2218143.795401898212731 ], [ 2592239.088802185375243, -2218238.453174328431487 ], [ 2592196.824888161849231, -2218343.457706256769598 ], [ 2592088.761361158452928, -2218485.294205567799509 ], [ 2592022.092152419500053, -2218579.785756825003773 ], [ 2591925.282145840115845, -2218655.196193017996848 ], [ 2591838.415405426174402, -2218708.490272587165236 ], [ 2591769.415542798582464, -2218756.787101343739778 ], [ 2591682.584433019161224, -2218849.057894794736058 ], [ 2591664.753337400499731, -2218932.810109962709248 ], [ 2591670.274114606902003, -2219048.697599241510034 ], [ 2591718.244821582920849, -2219270.752434152644128 ], [ 2591792.765448664780706, -2219458.481869702693075 ], [ 2591902.967928789556026, -2219673.594850398600101 ], [ 2592041.0019949846901, -2219889.627571023069322 ], [ 2592119.988338072318584, -2220001.824531336314976 ], [ 2592196.84791380353272, -2220147.118952877353877 ], [ 2592277.101114136632532, -2220330.340591276064515 ], [ 2592352.678119339048862, -2220449.46667114412412 ], [ 2592402.803109707310796, -2220546.32651148783043 ], [ 2592448.452315415255725, -2220650.643744491972029 ], [ 2592469.688227561302483, -2220738.038904677145183 ], [ 2592437.398659973405302, -2220820.671659125480801 ], [ 2592290.274899949785322, -2220890.274943574331701 ], [ 2592176.895187409594655, -2220926.644721800927073 ], [ 2592105.553382308222353, -2220985.884979468304664 ], [ 2591973.056368071585894, -2221127.637076454702765 ], [ 2591871.775291606318206, -2221245.75773004302755 ], [ 2591826.11760841216892, -2221382.803330380003899 ], [ 2591861.790071449242532, -2221548.228032138198614 ], [ 2591927.409023319371045, -2221740.747947624884546 ], [ 2592010.82512131286785, -2221874.33560234028846 ], [ 2592072.199290085583925, -2221939.209798827767372 ], [ 2592173.490489608142525, -2222003.183603879995644 ], [ 2592314.895753597375005, -2222026.739785886835307 ], [ 2592282.626198421232402, -2222151.832661659456789 ], [ 2592280.292271016165614, -2222306.690314349718392 ], [ 2592329.336496365722269, -2222473.246426019351929 ], [ 2592424.021538889501244, -2222635.188616784289479 ], [ 2592507.47873265389353, -2222728.460554883349687 ], [ 2592688.804097023792565, -2222840.565943419467658 ], [ 2592786.892430457752198, -2223047.383754176553339 ], [ 2592855.899683632422239, -2223202.012070725671947 ], [ 2592911.525642187334597, -2223270.602559232152998 ], [ 2593002.842887290287763, -2223301.423694183584303 ], [ 2593098.608079081401229, -2223315.70711109880358 ], [ 2593199.879217093810439, -2223362.857414259575307 ], [ 2593335.781127782538533, -2223420.564954980742186 ], [ 2593464.879050122573972, -2223503.344395386055112 ], [ 2593562.744805040769279, -2223588.664691659621894 ], [ 2593612.866709936410189, -2223730.399163704831153 ], [ 2593626.215888729784638, -2223947.55413933377713 ], [ 2593598.403440474532545, -2224185.103871675673872 ], [ 2593567.191400369163603, -2224426.11389492591843 ], [ 2593504.786017064936459, -2224618.662542821373791 ], [ 2593412.429099807050079, -2224872.777231811545789 ], [ 2593346.798775940667838, -2225049.827338192146271 ], [ 2593254.438855513930321, -2225230.773732770700008 ], [ 2593111.9878591732122, -2225431.542461740784347 ], [ 2593075.2365264557302, -2225500.290608005598187 ], [ 2592999.432728237472475, -2225575.819916883483529 ], [ 2592881.382840941194445, -2225667.998040535021573 ], [ 2592683.28507844125852, -2225858.120320009998977 ], [ 2582990.506672834046185, -2221758.399557042866945 ], [ 2583050.824326244648546, -2221607.292196438182145 ], [ 2583048.472204202786088, -2221570.702207277994603 ], [ 2583058.460663929115981, -2221512.810101439245045 ], [ 2583085.212832121178508, -2221438.442714639008045 ], [ 2583103.040825724136084, -2221356.824900715146214 ], [ 2583108.555304800160229, -2221297.844396772328764 ], [ 2583086.273910800460726, -2221230.457323984242976 ], [ 2583041.906383165158331, -2221125.320855663158 ], [ 2582996.258507346734405, -2221038.868460266850889 ], [ 2583006.232920145615935, -2220948.137859462294728 ], [ 2583025.122259003575891, -2220866.527224029880017 ], [ 2582983.946225235238671, -2220781.698773495387286 ], [ 2583010.696338516660035, -2220657.407520889304578 ], [ 2583069.718731373548508, -2220563.170471322257072 ], [ 2583090.722922921180725, -2220425.771431610453874 ], [ 2583036.149398814886808, -2220325.664323564618826 ], [ 2583025.129661513958126, -2220212.14546413673088 ], [ 2582934.891796870622784, -2220127.090238803997636 ], [ 2582815.775123876985162, -2220131.871510308701545 ], [ 2582716.813986818771809, -2220175.458705458324403 ], [ 2582625.513328461442143, -2220183.840174245182425 ], [ 2582485.184817305300385, -2220120.172674477566034 ], [ 2582333.77823482407257, -2220020.677132325712591 ], [ 2582186.855598292313516, -2219934.550949207972735 ], [ 2582017.630731928627938, -2219857.929610927123576 ], [ 2581821.631098278332502, -2219761.157086745370179 ], [ 2581756.054600498639047, -2219695.971344558522105 ], [ 2581699.340062151663005, -2219665.267119318246841 ], [ 2581637.98003497812897, -2219648.957306487020105 ], [ 2581533.292708499822766, -2219640.450402968563139 ], [ 2581439.876717688515782, -2219619.448927793186158 ], [ 2581286.35693142330274, -2219541.028433649335057 ], [ 2581216.090066008269787, -2219528.412458393722773 ], [ 2581120.333729053847492, -2219616.856658824719489 ], [ 2581077.005505672656, -2219730.112954242620617 ], [ 2581083.596552256494761, -2219823.58548933500424 ], [ 2581049.206603967119008, -2219842.376185008324683 ], [ 2580987.847054963000119, -2219833.005469967611134 ], [ 2580907.797842607367784, -2219777.358390284236521 ], [ 2580826.470539070665836, -2219718.501376579981297 ], [ 2580749.812168421689421, -2219731.482368834782392 ], [ 2580649.611839335877448, -2219749.155463767237961 ], [ 2580614.98193921148777, -2219692.657733406871557 ], [ 2580552.767665488645434, -2219611.999988352879882 ], [ 2580423.453444373328239, -2219536.625750778242946 ], [ 2580368.902824525721371, -2219442.12262504780665 ], [ 2580272.080200859811157, -2219412.556160262320191 ], [ 2580186.5133235915564, -2219387.8491335157305 ], [ 2580076.30762015748769, -2219292.009307535365224 ], [ 2579924.906506072729826, -2219202.377055719960481 ], [ 2579770.121409403160214, -2219085.497337733395398 ], [ 2579589.665241728071123, -2218954.343492385 ], [ 2579489.647258445154876, -2218948.518054327461869 ], [ 2579391.571160121355206, -2218945.905059075448662 ], [ 2579261.410742477048188, -2218951.677958690561354 ], [ 2579200.03432383434847, -2218891.5792152332142 ], [ 2579134.411466533783823, -2218879.779577477369457 ], [ 2579097.685494672972709, -2218949.544147598557174 ], [ 2579041.013620362151414, -2219014.406096406746656 ], [ 2578980.921503835823387, -2219018.116751248948276 ], [ 2578897.259655269794166, -2218963.780978670809418 ], [ 2578812.741899874061346, -2218873.9350226954557 ], [ 2578704.677412836812437, -2218824.284621970262378 ], [ 2578563.247381282504648, -2218780.609834529459476 ], [ 2578479.807974273804575, -2218701.447019869927317 ], [ 2578341.813013707753271, -2218531.517342947889119 ], [ 2578217.156961095985025, -2218422.51942919427529 ], [ 2578130.339821741916239, -2218329.191370031330734 ], [ 2577992.312130666337907, -2218323.437760593835264 ], [ 2577893.17234168574214, -2218315.205981444101781 ], [ 2577860.8769023665227, -2218231.223300525918603 ], [ 2577882.123994547408074, -2218166.459272724576294 ], [ 2577928.822063283529133, -2218113.300253589171916 ], [ 2577975.523463556542993, -2218039.052169783506542 ], [ 2577955.585133127402514, -2217951.394602140877396 ], [ 2577882.126657299231738, -2217860.536371477879584 ], [ 2577784.006470948457718, -2217827.483366855420172 ], [ 2577695.043927859980613, -2217814.229332837741822 ], [ 2577669.356932918541133, -2217742.560627714730799 ], [ 2577698.454403220210224, -2217679.973030905239284 ], [ 2577741.782473085913807, -2217617.189084825105965 ], [ 2577784.032686293125153, -2217550.929604542907327 ], [ 2577782.956704744603485, -2217431.868433495983481 ], [ 2577737.310449524316937, -2217358.500928850378841 ], [ 2577662.764988631475717, -2217327.700503017287701 ], [ 2577604.821394727565348, -2217340.760092332027853 ], [ 2577559.162480543833226, -2217303.96297866338864 ], [ 2577547.063179818913341, -2217268.66710496135056 ], [ 2577567.026081682182848, -2217188.418027235660702 ], [ 2577607.14162451820448, -2217090.651383999269456 ], [ 2577567.036993862129748, -2217017.045313641894609 ], [ 2577484.648626843001693, -2217030.250046883709729 ], [ 2577381.234370566438884, -2217083.390203289221972 ], [ 2577297.575719672720879, -2217118.743433675263077 ], [ 2577210.719229165930301, -2217069.194955511484295 ], [ 2577162.973333635833114, -2216998.486371747683734 ], [ 2577160.624921216629446, -2216882.625608899164945 ], [ 2577182.912086230702698, -2216775.163139175157994 ], [ 2577203.107361023314297, -2216681.571158695966005 ], [ 2577179.721552668605, -2216641.682177633512765 ], [ 2577086.098172627855092, -2216606.247887774836272 ], [ 2576904.779358474072069, -2216550.889679619576782 ], [ 2576669.723537688609213, -2216362.865617134142667 ], [ 2576476.077162351459265, -2216105.381624868605286 ], [ 2576435.954764469526708, -2216130.270954370498657 ], [ 2576388.174047168344259, -2216201.299329216592014 ], [ 2576319.174503712914884, -2216263.946589985862374 ], [ 2576240.168934716377407, -2216257.677143522538245 ], [ 2576179.867800572887063, -2216285.133800364099443 ], [ 2576188.78920305846259, -2216365.256006403360516 ], [ 2576203.448571063578129, -2216478.77322270302102 ], [ 2576183.292422486003488, -2216543.535009662155062 ], [ 2576135.489830831531435, -2216605.221704551950097 ], [ 2576044.211682940833271, -2216685.374246072024107 ], [ 2576011.942315879743546, -2216751.410174286458641 ], [ 2575910.659966453444213, -2216749.030658980365843 ], [ 2575808.079097468871623, -2216741.038438763469458 ], [ 2575666.881117296405137, -2216788.104961140081286 ], [ 2575564.327427831944078, -2216867.397984155919403 ], [ 2575502.147712281439453, -2216958.106772297993302 ], [ 2575431.840088466648012, -2216982.841862560249865 ], [ 2575358.384774353820831, -2216993.680192611180246 ], [ 2575318.269238727167249, -2217056.205944400746375 ], [ 2575284.920847136061639, -2217144.925714330282062 ], [ 2575234.822757215239108, -2217253.313953545410186 ], [ 2575154.767804419156164, -2217369.291524865664542 ], [ 2575068.975409956648946, -2217438.792637148406357 ], [ 2574974.291951507329941, -2217508.515157609246671 ], [ 2574940.946118738036603, -2217583.088559427764267 ], [ 2574916.523743441328406, -2217657.440656818915159 ], [ 2574861.976601706817746, -2217706.813490646425635 ], [ 2574792.963497348595411, -2217776.667181817349046 ], [ 2574764.083892643451691, -2217866.479788986034691 ], [ 2574740.511869634501636, -2217910.138321155682206 ], [ 2574692.754246246535331, -2217908.826360116247088 ], [ 2574640.507118528708816, -2217890.139801399316639 ], [ 2574544.756397216580808, -2217881.641203752253205 ], [ 2574408.840470226015896, -2217905.236509518232197 ], [ 2574294.185656390618533, -2217915.859741819556803 ], [ 2574227.32264248887077, -2217953.68945655412972 ], [ 2574187.395972209516913, -2217984.449966859538108 ], [ 2574117.111799330450594, -2217977.41481099370867 ], [ 2574020.280364452395588, -2217985.725610948633403 ], [ 2573982.494579223450273, -2218038.92021169885993 ], [ 2573968.050859242677689, -2218087.430155317764729 ], [ 2573912.429836225695908, -2218145.071195262484252 ], [ 2573838.95525473728776, -2218204.221736043225974 ], [ 2573744.276366266421974, -2218258.457606170326471 ], [ 2573602.850657223258168, -2218256.124807790853083 ], [ 2573491.586341233924031, -2218219.510718638077378 ], [ 2573400.305683481507003, -2218186.470065568108112 ], [ 2573326.844597888644785, -2218139.106311625335366 ], [ 2573233.409369228407741, -2218151.167895668651909 ], [ 2573151.011106538586318, -2218197.188896735198796 ], [ 2573074.153389802202582, -2218217.077447267249227 ], [ 2573030.640520674642175, -2218202.969822878949344 ], [ 2572995.163801699876785, -2218135.514235426671803 ], [ 2572892.634241030085832, -2218090.66704660281539 ], [ 2572798.124514592345804, -2218131.017325351480395 ], [ 2572716.819872975815088, -2218177.042107666376978 ], [ 2572651.201462084893137, -2218159.347894558683038 ], [ 2572568.837603621650487, -2218179.205557550303638 ], [ 2572509.795202025212348, -2218179.163783026393503 ], [ 2572493.008657273836434, -2218147.576119198463857 ], [ 2572446.322840017732233, -2218080.061220891308039 ], [ 2572442.922610845882446, -2218012.772963788360357 ], [ 2572438.43903481727466, -2217956.157102623488754 ], [ 2572410.643388388678432, -2217866.318287360481918 ], [ 2572428.473952076863497, -2217817.827883081976324 ], [ 2572489.634678972419351, -2217779.975085760001093 ], [ 2572523.182779691182077, -2217738.774488964118063 ], [ 2572525.287013831082731, -2217684.596313549205661 ], [ 2572499.806202195119113, -2217608.918822203762829 ], [ 2572516.382544410414994, -2217546.274652882944793 ], [ 2572512.969449164811522, -2217449.358072853647172 ], [ 2572459.690607856959105, -2217412.775884190574288 ], [ 2572368.379432507324964, -2217329.013726499397308 ], [ 2572402.777974219527096, -2217232.296125526539981 ], [ 2572428.472269313409925, -2217131.796386251691729 ], [ 2572368.382519127801061, -2217007.891996597405523 ], [ 2572239.275799935217947, -2216966.375166628044099 ], [ 2572081.087390931323171, -2216974.887866361998022 ], [ 2571907.426422995980829, -2216986.520985212642699 ], [ 2571770.476071891374886, -2217031.178638270590454 ], [ 2571680.446336403023452, -2217052.592586825601757 ], [ 2571628.006785292644054, -2217001.865995093248785 ], [ 2571592.552494646515697, -2216893.30515278223902 ], [ 2571554.53365823533386, -2216786.866681306157261 ], [ 2571437.763931492343545, -2216752.617119842208922 ], [ 2571302.935940855648369, -2216816.500829045195132 ], [ 2571174.903145075775683, -2216887.359984123613685 ], [ 2571045.784302022773772, -2216943.798487653024495 ], [ 2570945.584574350621551, -2216943.800599495414644 ], [ 2570770.818592347670346, -2216932.194488298147917 ], [ 2570644.078274583909661, -2216952.340454616118222 ], [ 2570494.80366100743413, -2216987.580435731913894 ], [ 2570391.398890807759017, -2216947.522930982057005 ], [ 2570301.155562214087695, -2216927.554998482111841 ], [ 2570187.570238462649286, -2217006.492794244084507 ], [ 2570079.486571277491748, -2217017.125337517820299 ], [ 2569973.746667277999222, -2216992.268023912794888 ], [ 2569858.033549467101693, -2217021.810372938401997 ], [ 2569792.409314786549658, -2217112.748594305478036 ], [ 2569738.921482956036925, -2217241.656741095241159 ], [ 2569676.703225911594927, -2217346.76128463447094 ], [ 2569575.200551362708211, -2217410.546688301023096 ], [ 2569441.640244230162352, -2217439.990952260792255 ], [ 2569302.57573656598106, -2217456.591646434739232 ], [ 2569132.310091526247561, -2217489.839720426592976 ], [ 2569017.652138523291796, -2217507.371089512482285 ], [ 2568988.545284448657185, -2217560.334067740477622 ], [ 2568953.07593249855563, -2217643.159708170220256 ], [ 2568862.857844536658376, -2217673.902760475873947 ], [ 2568754.767130343709141, -2217722.166291677393019 ], [ 2568629.085722168441862, -2217784.748596507590264 ], [ 2568578.964543791953474, -2217834.661089133005589 ], [ 2568503.389072651509196, -2217899.383752673398703 ], [ 2568409.740511255338788, -2217963.207186255604029 ], [ 2568328.434783684555441, -2218044.71581021277234 ], [ 2568323.946967865806073, -2218145.062538732774556 ], [ 2568335.199635050259531, -2218211.326463988982141 ], [ 2568305.078137950971723, -2218316.606330113019794 ], [ 2568231.608114837668836, -2218377.870643019210547 ], [ 2568144.763051845133305, -2218409.69737079879269 ], [ 2568078.074670766480267, -2218455.782247376162559 ], [ 2568027.981946314685047, -2218462.983029494993389 ], [ 2567947.711165799759328, -2218438.2515210788697 ], [ 2567899.950412609614432, -2218449.735970736481249 ], [ 2567834.338319205678999, -2218511.308971505146474 ], [ 2567785.293953286018223, -2218520.917417211923748 ], [ 2567705.010784119833261, -2218553.57919938210398 ], [ 2567685.074748072773218, -2218621.008470884058625 ], [ 2567651.720507849007845, -2218703.84756110329181 ], [ 2567585.912568189203739, -2218746.19883033586666 ], [ 2567484.636758311185986, -2218753.384017815347761 ], [ 2567374.444163013249636, -2218759.451786577235907 ], [ 2567279.932984431274235, -2218742.647334011737257 ], [ 2567219.849225654266775, -2218720.426191677339375 ], [ 2567169.744136847555637, -2218729.760334076825529 ], [ 2567050.628972043748945, -2218735.777099018450826 ], [ 2566893.518321513663977, -2218726.366715703159571 ], [ 2566801.137589374091476, -2218714.376891007646918 ], [ 2566763.34391123149544, -2218722.710207761265337 ], [ 2566734.492228851187974, -2218721.482654105871916 ], [ 2566695.422323167324066, -2218708.45263232383877 ], [ 2566646.354434887412935, -2218691.896695765666664 ], [ 2566625.340927135199308, -2218670.691109905019403 ], [ 2566588.611085426528007, -2218648.330476353410631 ], [ 2566549.529225040692836, -2218643.575622815173119 ], [ 2566487.314763243775815, -2218647.23479121690616 ], [ 2566428.284994187299162, -2218644.771536387503147 ], [ 2566374.779491622932255, -2218632.995411014184356 ], [ 2566328.068811473436654, -2218579.879676626529545 ], [ 2566277.962763231247663, -2218535.020525690168142 ], [ 2566178.824974367860705, -2218485.350400821771473 ], [ 2566065.419314362574369, -2218448.68084650253877 ], [ 2566003.005455474369228, -2218434.451685816980898 ], [ 2565949.485925913322717, -2218467.521857972722501 ], [ 2565880.477785139344633, -2218524.263959484174848 ], [ 2565818.272704996634275, -2218550.344689104240388 ], [ 2565736.946317694615573, -2218549.089457122609019 ], [ 2565671.33412360213697, -2218531.371025573927909 ], [ 2565623.366723268292844, -2218489.992516629397869 ], [ 2565588.950895317364484, -2218427.334073735401034 ], [ 2565564.345364288426936, -2218360.192609173245728 ], [ 2565534.384692577179521, -2218331.728518369141966 ], [ 2565501.070136907510459, -2218255.996320311911404 ], [ 2565449.687802182044834, -2218232.484224900603294 ], [ 2565421.872807780280709, -2218176.002974218223244 ], [ 2565440.751236235722899, -2218145.14330921927467 ], [ 2565415.284820600412786, -2218083.870551503263414 ], [ 2565366.221088738180697, -2218067.045031762681901 ], [ 2565309.557726403232664, -2218038.965166334994137 ], [ 2565254.966943026985973, -2218019.972889120224863 ], [ 2565217.188322781585157, -2218049.658410399220884 ], [ 2565194.888333386275917, -2218075.426647122483701 ], [ 2565167.059221966657788, -2218081.409947627224028 ], [ 2565121.410774049349129, -2218082.755171367432922 ], [ 2565078.959568404126912, -2218045.945340007543564 ], [ 2565053.462359802331775, -2217996.417812833562493 ], [ 2565020.131056319922209, -2217942.041269472334534 ], [ 2564967.703614667057991, -2217915.852977078408003 ], [ 2564926.518930912017822, -2217872.109971678815782 ], [ 2564898.693512439727783, -2217829.776806612499058 ], [ 2564853.050844558980316, -2217782.538466792088002 ], [ 2564795.283515178132802, -2217768.332236865069717 ], [ 2564750.696002608165145, -2217752.064596362877637 ], [ 2564689.341080143582076, -2217721.020648504141718 ], [ 2564647.088087172247469, -2217672.733512837905437 ], [ 2564613.739639153238386, -2217627.699917329940945 ], [ 2564591.440378055442125, -2217558.17070862557739 ], [ 2564552.578157016076148, -2217478.938441307749599 ], [ 2564509.079781703650951, -2217439.987272226717323 ], [ 2564446.855085540562868, -2217410.539908852428198 ], [ 2564377.634146644733846, -2217386.658262243494391 ], [ 2564320.942151457536966, -2217376.193998439703137 ], [ 2564249.821369256824255, -2217282.898922453634441 ], [ 2564244.07543575251475, -2217242.826728614512831 ], [ 2564217.315792175009847, -2217182.348855546675622 ], [ 2564192.908478053286672, -2217122.418389160651714 ], [ 2564174.02794133592397, -2217035.025699033401906 ], [ 2564171.897946084383875, -2216977.090360033791512 ], [ 2564162.981859611347318, -2216904.969623239710927 ], [ 2564145.136323636863381, -2216857.889518617652357 ], [ 2564147.259130912367254, -2216828.27291852934286 ], [ 2564145.121819454245269, -2216771.67270481493324 ], [ 2564085.036548955366015, -2216721.951122716069221 ], [ 2564027.073699976783246, -2216660.496962340082973 ], [ 2564007.126769309863448, -2216603.796176270116121 ], [ 2563979.299627958331257, -2216532.904097619000822 ], [ 2563978.045178154949099, -2216490.456550765316933 ], [ 2563944.706456369720399, -2216450.229283826425672 ], [ 2563914.543912160675973, -2216446.855000399984419 ], [ 2563873.358024511020631, -2216427.936647608410567 ], [ 2563868.900615607853979, -2216394.81329845963046 ], [ 2563876.760991021990776, -2216353.48558816825971 ], [ 2563880.1366305523552, -2216319.339315760880709 ], [ 2563874.623776452150196, -2216279.270294103305787 ], [ 2563832.172420270275325, -2216225.912569026928395 ], [ 2563776.532349285669625, -2216182.355804233346134 ], [ 2563742.153681203722954, -2216114.89762652432546 ], [ 2563735.328752572648227, -2216042.791827004402876 ], [ 2563736.602352875284851, -2215975.536852066870779 ], [ 2563756.581115348730236, -2215931.876778467092663 ], [ 2563775.466192876454443, -2215911.698823413345963 ], [ 2563796.692237807437778, -2215893.936408506706357 ], [ 2563790.961665109731257, -2215869.081021403893828 ], [ 2563767.605157161597162, -2215823.306419087573886 ], [ 2563724.298666838556528, -2215768.877296159509569 ], [ 2563670.782673068344593, -2215725.333361938130111 ], [ 2563639.581804770976305, -2215676.845142426434904 ], [ 2563644.026034474838525, -2215623.755665375851095 ], [ 2563623.020751824136823, -2215602.283490888308734 ], [ 2563604.12325527286157, -2215601.108226121403277 ], [ 2563580.77454065810889, -2215601.242201703600585 ], [ 2563570.567202590405941, -2215582.233538675121963 ], [ 2563563.987692398019135, -2215531.483719051815569 ], [ 2563560.599250467959791, -2215467.673794131726027 ], [ 2563548.500484654214233, -2215384.06348955957219 ], [ 2563520.451552944257855, -2215294.22376798465848 ], [ 2563494.976495211943984, -2215224.416916687507182 ], [ 2563457.202012176159769, -2215212.724802715703845 ], [ 2563440.421089717652649, -2215195.013529541902244 ], [ 2563437.032145070377737, -2215166.702608696185052 ], [ 2563431.51461982075125, -2215139.447233819868416 ], [ 2563450.398781934287399, -2215089.911250325385481 ], [ 2563480.547114203218371, -2215012.948921177536249 ], [ 2563498.383255764842033, -2214955.133410587441176 ], [ 2563508.367101891431957, -2214813.467497104313225 ], [ 2563483.720703845378011, -2214684.950013502500951 ], [ 2563420.460828873794526, -2214599.716934067662805 ], [ 2563394.766919756308198, -2214533.647688890807331 ], [ 2563393.706585907842964, -2214480.529953915625811 ], [ 2563389.244038212113082, -2214419.119359361473471 ], [ 2563306.854765261989087, -2214380.21701402310282 ], [ 2563246.791314688045532, -2214369.465402250178158 ], [ 2563223.412039182614535, -2214316.487582255154848 ], [ 2563170.983509138226509, -2214286.830250583589077 ], [ 2563103.032550170551986, -2214281.104019824415445 ], [ 2563010.668575510382652, -2214282.177040107548237 ], [ 2562966.064885110128671, -2214270.445595756638795 ], [ 2562921.689153993036598, -2214247.772777284029871 ], [ 2562814.674836706370115, -2214200.720999548211694 ], [ 2562701.320463635958731, -2214189.929108214564621 ], [ 2562646.74708775151521, -2214205.362293947953731 ], [ 2562605.53962545003742, -2214202.990526454057544 ], [ 2562541.00097103882581, -2214174.596542409621179 ], [ 2562474.11143899243325, -2214180.617313950322568 ], [ 2562397.239851851016283, -2214198.323507429100573 ], [ 2562361.783272888511419, -2214187.710820080246776 ], [ 2562332.694488922599703, -2214159.520171752665192 ], [ 2562276.016455712262541, -2214142.646807593759149 ], [ 2562188.094667502213269, -2214161.622849331703037 ], [ 2562096.802597820293158, -2214201.663178934250027 ], [ 2561982.146103214472532, -2214273.86179358465597 ], [ 2561896.372101665008813, -2214305.659728968981653 ], [ 2561820.767009263858199, -2214304.688694472424686 ], [ 2561719.280221763066947, -2214271.540869672317058 ], [ 2561603.573828642256558, -2214237.242617044597864 ], [ 2561518.002307005692273, -2214222.067624994087964 ], [ 2561456.648325815331191, -2214199.559975768905133 ], [ 2561420.959822525735945, -2214142.772701615933329 ], [ 2561373.192612397484481, -2214093.121394842863083 ], [ 2561355.354117242619395, -2214069.531795814633369 ], [ 2561290.819487653672695, -2213977.348437361884862 ], [ 2555897.267867652699351, -2216204.511492321267724 ], [ 2537866.565692488569766, -2206581.053102905396372 ], [ 2537822.203819893766195, -2206534.857334638014436 ], [ 2537737.475531705655158, -2206587.882103740237653 ], [ 2537623.904830700717866, -2206593.752535076346248 ], [ 2537454.668242113664746, -2206563.2163544469513 ], [ 2537350.194902475457639, -2206533.669080299790949 ], [ 2537276.747600745409727, -2206508.875309595838189 ], [ 2537172.067122584674507, -2206475.857765273656696 ], [ 2537031.712550277356058, -2206429.782837835606188 ], [ 2536891.557037910912186, -2206388.510209896136075 ], [ 2536738.896574949845672, -2206334.343414457514882 ], [ 2536682.19971158914268, -2206317.669217234477401 ], [ 2536348.212056072428823, -2206142.971313361544162 ], [ 2535993.199238907545805, -2205895.294739672914147 ], [ 2535831.616366710048169, -2205805.313390825875103 ], [ 2535474.268327309284359, -2205655.513948667328805 ], [ 2535172.779128978028893, -2205608.275436487048864 ], [ 2534943.257100079208612, -2205564.74988103704527 ], [ 2534795.249594965018332, -2205547.949047198519111 ], [ 2534620.526124704629183, -2205517.350664115510881 ], [ 2534195.211514765862375, -2205391.04869547765702 ], [ 2534058.273985663428903, -2205304.967541847378016 ], [ 2533912.601629647891968, -2205184.412482687272131 ], [ 2533515.115072498563677, -2204996.948094260878861 ], [ 2533315.744814577978104, -2204993.368064593058079 ], [ 2533102.159555851481855, -2204966.209236770868301 ], [ 2532953.946921162307262, -2204918.984851777553558 ], [ 2532868.384142968337983, -2204875.416616443544626 ], [ 2532833.785272627137601, -2204856.492735157720745 ], [ 2532725.897729283198714, -2204783.420012754853815 ], [ 2532611.24313243618235, -2204623.874372311402112 ], [ 2532518.689213946461678, -2204497.565925759263337 ], [ 2532457.51886579208076, -2204261.5929334461689 ], [ 2532434.168218772858381, -2204098.716137751936913 ], [ 2532361.768137249629945, -2203935.749235017690808 ], [ 2532093.601189841516316, -2203717.473099318798631 ], [ 2531934.353739690501243, -2203644.291415998712182 ], [ 2531812.889058399479836, -2203603.125815954525024 ], [ 2531695.045364755671471, -2203569.987773216329515 ], [ 2531527.94981593452394, -2203482.60961589589715 ], [ 2531372.101491768844426, -2203384.644226485863328 ], [ 2531221.98348205210641, -2203273.651247560977936 ], [ 2531047.040158492513001, -2203085.927218361757696 ], [ 2530953.59222345566377, -2202802.78837680304423 ], [ 2530957.013654430862516, -2202556.106753160711378 ], [ 2530979.296268317848444, -2202317.835253634490073 ], [ 2530999.251962847076356, -2202203.299474397208542 ], [ 2530985.876072852872312, -2201965.036003658082336 ], [ 2530913.489187445491552, -2201789.281020525377244 ], [ 2530886.71051085786894, -2201685.071630711201578 ], [ 2530844.475065201055259, -2201587.416199517901987 ], [ 2530608.574822217226028, -2201263.776293070986867 ], [ 2530547.216524112038314, -2201153.179962285794318 ], [ 2530412.608256002888083, -2200945.235109713394195 ], [ 2530281.174010144546628, -2200738.648572340607643 ], [ 2530120.839565729256719, -2200524.115503830369562 ], [ 2529911.704121145419776, -2200146.282611655537039 ], [ 2529836.979896175209433, -2199997.72397856367752 ], [ 2529772.416425110306591, -2199864.441967940889299 ], [ 2529697.897487899754196, -2199701.753160148859024 ], [ 2529625.494477470871061, -2199584.947887809947133 ], [ 2529483.029172428417951, -2199497.488310275133699 ], [ 2529269.405403855722398, -2199462.297399040777236 ], [ 2528863.012241206597537, -2199421.931159600615501 ], [ 2528728.188513402827084, -2199421.989535076543689 ], [ 2528621.403842394705862, -2199407.590457337908447 ], [ 2528559.180294687394053, -2199353.525233069900423 ], [ 2528429.878659954294562, -2199194.159206966403872 ], [ 2528293.129505204502493, -2199078.736480415798724 ], [ 2528151.736372068524361, -2198924.080210227984935 ], [ 2528049.171432084403932, -2198801.447894248180091 ], [ 2527923.483637613710016, -2198638.377444308251143 ], [ 2527558.271697924472392, -2198285.515652486588806 ], [ 2527375.671210709027946, -2198073.487771372310817 ], [ 2527344.6633559926413, -2197802.077991322614253 ], [ 2527380.118755274452269, -2197663.692870677448809 ], [ 2527403.490813297685236, -2197568.412747129332274 ], [ 2527458.057549462188035, -2197452.83724729437381 ], [ 2527510.506633742712438, -2197158.868559919297695 ], [ 2527502.624773354735225, -2196958.30270789610222 ], [ 2527498.174257884267718, -2196844.152065503410995 ], [ 2527471.42403136799112, -2196708.237240965012461 ], [ 2527442.538498883601278, -2196543.245274411514401 ], [ 2527375.671218576375395, -2196384.900391099974513 ], [ 2527343.390164430253208, -2196355.595179705880582 ], [ 2527281.192376517225057, -2196295.402821387164295 ], [ 2527233.185155775398016, -2196247.048795175738633 ], [ 2527163.108040002640337, -2196159.601816176902503 ], [ 2527058.443511473480612, -2196072.426848181057721 ], [ 2526957.16355456598103, -2196015.671633759047836 ], [ 2526832.540690068155527, -2195966.204522799234837 ], [ 2526738.880212647374719, -2195980.425816319417208 ], [ 2526493.032634172588587, -2196060.413036731537431 ], [ 2526283.672696445137262, -2196103.081679678987712 ], [ 2526052.211388161871582, -2196124.250533700920641 ], [ 2525936.299786188174039, -2196097.239425892941654 ], [ 2525812.72637101681903, -2196045.10752334119752 ], [ 2525748.179356792010367, -2196007.289132148493081 ], [ 2525524.37880971422419, -2195808.02022990398109 ], [ 2525374.243380726780742, -2195637.04177005123347 ], [ 2525305.239190973807126, -2195360.841455906163901 ], [ 2525295.052025153767318, -2195235.992285224143416 ], [ 2525317.349033932201564, -2195077.800389753654599 ], [ 2525349.618116780649871, -2194958.876197017729282 ], [ 2525377.431291832122952, -2194828.988103742245585 ], [ 2525378.719341545831412, -2194522.411604750435799 ], [ 2525340.711954234633595, -2194405.619601048063487 ], [ 2525279.547998169437051, -2194359.29808902926743 ], [ 2525201.634078995324671, -2194350.970994201023132 ], [ 2525109.280172282829881, -2194351.064083482604474 ], [ 2525083.597177790012211, -2194155.456409547943622 ], [ 2525132.644900634884834, -2194069.190365861169994 ], [ 2525159.399302047211677, -2193965.425863029435277 ], [ 2525122.63832973735407, -2193797.995261199306697 ], [ 2525052.367419331334531, -2193716.682481253053993 ], [ 2524902.265416325535625, -2193596.370365642011166 ], [ 2524463.59925947105512, -2193348.550117761828005 ], [ 2524233.212457880377769, -2193271.869972974993289 ], [ 2524092.855779134202749, -2193238.799970984924585 ], [ 2523751.214766815304756, -2193074.886995876673609 ], [ 2523657.5954978489317, -2192989.926772607956082 ], [ 2523419.353720345068723, -2192680.995588406920433 ], [ 2523413.849165573250502, -2192677.487640441861004 ], [ 2525026.895039798226207, -2191934.191090098582208 ], [ 2527666.331159085966647, -2192125.337500583846122 ], [ 2527437.022180764004588, -2191685.387223792728037 ], [ 2527015.143673800397664, -2191461.233377195894718 ], [ 2526585.379747193306684, -2191190.100631731562316 ], [ 2526659.912216067314148, -2190612.258599711116403 ], [ 2527196.4686996974051, -2190021.126879008952528 ], [ 2527429.174736201297492, -2189550.583607774693519 ], [ 2527492.637878754641861, -2189076.378663077019155 ], [ 2527356.759492426645011, -2188733.412209573667496 ], [ 2527164.181748522911221, -2188360.707977889105678 ], [ 2526935.92274725669995, -2187853.421080677304417 ], [ 2526820.21867750165984, -2187378.441461815033108 ], [ 2526686.665895542595536, -2186806.601652772631496 ], [ 2526400.661687326617539, -2186413.769195926841348 ], [ 2526285.999497470911592, -2185824.244526538066566 ], [ 2526132.276706522330642, -2185442.288703374098986 ], [ 2526195.747316040098667, -2184959.927736701443791 ], [ 2526524.225825582630932, -2184356.210283453110605 ], [ 2526269.229854449164122, -2183792.86596644250676 ], [ 2525886.191232624929398, -2183503.801597399171442 ], [ 2526250.309920260682702, -2183147.924956531263888 ], [ 2526963.951088574714959, -2182617.499398169107735 ], [ 2526569.872353286016732, -2180571.887439686339349 ], [ 2526256.891591627150774, -2180084.140662889927626 ], [ 2526005.300841775722802, -2179843.547247202135623 ], [ 2525871.735342647414654, -2179348.378259403631091 ], [ 2525635.849689302034676, -2178709.665642346255481 ], [ 2525068.064885432366282, -2178217.885550531093031 ], [ 2524571.662227240856737, -2178029.508444927167147 ], [ 2524282.030101175885648, -2177884.522358927410096 ], [ 2523737.839604033157229, -2177676.051430149003863 ], [ 2523353.730887143407017, -2177556.966044872067869 ], [ 2523586.449482284951955, -2177105.409094120375812 ], [ 2523445.045812474563718, -2176458.417046115268022 ], [ 2523290.265068750828505, -2176096.594671292230487 ], [ 2523296.840484841261059, -2175583.94055753480643 ], [ 2523133.329269937705249, -2175239.910626023542136 ], [ 2522548.787302409764379, -2175222.086933455429971 ], [ 2522331.809673129115254, -2174649.403938887175173 ], [ 2521852.991080945823342, -2174500.815156642813236 ], [ 2521339.800924888812006, -2174777.796480488032103 ], [ 2520773.323077241424471, -2174882.836360131390393 ], [ 2520293.465666927397251, -2174250.030373938847333 ], [ 2520116.581251991447061, -2174124.007326967548579 ], [ 2519701.274858788587153, -2173531.132788367569447 ], [ 2519746.91301644127816, -2172980.778079392388463 ], [ 2519877.080861022695899, -2172414.060049515683204 ], [ 2519535.44879898801446, -2171963.743454681709409 ], [ 2519353.899379596114159, -2171543.452139349188656 ], [ 2518717.12619945872575, -2171268.686182392761111 ], [ 2518618.170625399332494, -2170955.2988480492495 ], [ 2518599.274854329414666, -2170795.121246114838868 ], [ 2518584.638191691134125, -2170678.380095240660012 ], [ 2518023.662787455599755, -2170395.684988151304424 ], [ 2517676.286058300640434, -2170353.249317025765777 ], [ 2517383.508577188942581, -2170376.743420555256307 ], [ 2516904.925703439395875, -2170237.925799267366529 ], [ 2516825.931615978479385, -2169847.759645953308791 ], [ 2516436.316558304708451, -2169509.692525345832109 ], [ 2516113.364212581887841, -2169647.678947896230966 ], [ 2515718.212980369571596, -2169612.28155774762854 ], [ 2515562.369554659351707, -2169354.094959664624184 ], [ 2515399.716542119625956, -2168859.433411611709744 ], [ 2515095.864962471649051, -2168437.654660238884389 ], [ 2514690.765878819860518, -2168478.834833756554872 ], [ 2514228.743730385787785, -2168452.985065244603902 ], [ 2513760.115376196801662, -2168331.759407340083271 ], [ 2513527.421067677438259, -2168177.309964831452817 ], [ 2513069.82969836704433, -2167924.111726637929678 ], [ 2512839.475224097725004, -2167588.379842432681471 ], [ 2512551.119196000508964, -2167365.583237451501191 ], [ 2512251.725474629551172, -2167191.145424760412425 ], [ 2512187.200268926564604, -2166498.733764005359262 ], [ 2512298.439493126701564, -2165997.857900243718177 ], [ 2512096.968732617329806, -2165624.589890108443797 ], [ 2511874.215265058446676, -2164787.190502476878464 ], [ 2511805.211760748177767, -2163724.848890932276845 ], [ 2511628.33594780927524, -2163628.368592920713127 ], [ 2511379.926378760952502, -2163216.159281004220247 ], [ 2511413.470491435844451, -2162866.437968900427222 ], [ 2511523.680393059272319, -2162442.300836869049817 ], [ 2511255.29448049608618, -2162125.496987631544471 ], [ 2510932.548944057896733, -2161655.480278390459716 ], [ 2510683.063418620731682, -2161387.275471779983491 ], [ 2510897.923928865697235, -2160831.242603797931224 ], [ 2511275.442156713921577, -2160163.464721601922065 ], [ 2511548.065792647656053, -2159571.210308571346104 ], [ 2511504.757544091437012, -2158689.243293190840632 ], [ 2511553.601940952707082, -2157932.338437883649021 ], [ 2511841.956947263330221, -2157539.038063707761467 ], [ 2512066.797957735601813, -2157002.068772390019149 ], [ 2512187.181447247043252, -2156511.083320029545575 ], [ 2512068.063668347429484, -2156262.661392856389284 ], [ 2511849.794072716031224, -2155767.053513302467763 ], [ 2511355.502056175842881, -2155466.598342193756253 ], [ 2511096.230874958448112, -2155235.121575829572976 ], [ 2511399.027050309348851, -2155106.452531804796308 ], [ 2511328.738354082219303, -2154802.842518392018974 ], [ 2511142.964461301453412, -2154591.134853912517428 ], [ 2510858.000512551516294, -2154208.34287378564477 ], [ 2510769.90303575899452, -2153799.780269159004092 ], [ 2510904.739655861165375, -2153584.342644882388413 ], [ 2511161.842817194294184, -2153389.068034756928682 ], [ 2511642.766099309083074, -2153310.023082545027137 ], [ 2511860.850375443696976, -2153172.414572211448103 ], [ 2512191.418827682733536, -2153062.859857130795717 ], [ 2512635.63413182971999, -2152927.35926426621154 ], [ 2513105.512010854668915, -2152982.797295171767473 ] ] ] ] } }
]
}
